unit_code,szip_ad,Lea_Name,School_Name,State_Name,Latitude,Longitude,Address components
10303,27253,Alamance-Burlington Schools,Alamance-Burlington Middle/Early College,State Of North Carolina,36.06,-79.36,"1247, Jimmie Kerr Road, Haw River, 13, Haw River, Alamance County, North Carolina, United States, 27258"
10311,27217,Alamance-Burlington Schools,Career Technical Education Center,State Of North Carolina,36.09,-79.39,"2550, Buckingham Road, Burlington, 13, Haw River, Alamance County, North Carolina, United States, 27217"
10324,27302,Alamance-Burlington Schools,Eastern Alamance High,State Of North Carolina,36.11,-79.3,"4040, Mebane Rogers Road, Mebane, Melville, Alamance County, North Carolina, United States, 27302"
10348,27253,Alamance-Burlington Schools,Graham High,State Of North Carolina,36.08,-79.38,"903, Trollinger Road, Graham, 6, Graham, Alamance County, North Carolina, United States, 27253, 1945"
10360,27217,Alamance-Burlington Schools,Hugh M Cummings High,State Of North Carolina,36.09,-79.4,"2200, North Mebane Street, Burlington, 6, Graham, Alamance County, North Carolina, United States, 27217"
10388,27253,Alamance-Burlington Schools,Southern High,State Of North Carolina,36.01,-79.41,"631, Southern High School Road, Graham, 7, Albright, Alamance County, North Carolina, United States, 27253, 8414"
10396,27215,Alamance-Burlington Schools,Walter M Williams High,State Of North Carolina,36.09,-79.45,"1307, South Church Street, Burlington, 12, Burlington, Alamance County, North Carolina, United States, 27215, 4919"
10400,27244,Alamance-Burlington Schools,Western Alamance High,State Of North Carolina,36.15,-79.5,"1731, North North Carolina Highway 87, Elon, 3, Boone Station, Alamance County, North Carolina, United States, 27244, 9711"
20302,28681,Alexander County Schools,Alexander Central High,State Of North Carolina,35.92,-81.19,"223, School Drive, Township of Taylorsville, Taylorsville, Alexander County, North Carolina, United States, 28681"
20303,28681,Alexander County Schools,Alexander Early College,State Of North Carolina,35.91,-81.18,"230, Industrial Boulevard, Township of Taylorsville, Taylorsville, Alexander County, North Carolina, United States, 28681, 5910"
30304,28675,Alleghany County Schools,Alleghany High,State Of North Carolina,36.51,-81.12,"404, Trojan Avenue, Sparta, Gap Civil, Alleghany County, North Carolina, United States, 28675"
40304,28135,Anson County Schools,Anson Co. Early College High,State Of North Carolina,35,-80.21,"Ledbetter Street, Polkton, Lanesboro, Anson County, North Carolina, United States, 28135"
40306,28170,Anson County Schools,Anson High School,State Of North Carolina,34.98,-80.1,"96, Anson High School Road, Wadesboro, Wadesboro, Anson County, North Carolina, United States, 28170, 8538"
40700,28170,Anson County Schools,Anson New Tech High,State Of North Carolina,34.98,-80.1,"96, Anson High School Road, Wadesboro, Wadesboro, Anson County, North Carolina, United States, 28170, 8538"
50302,28694,Ashe County Schools,Ashe County High,State Of North Carolina,36.39,-81.48,"184, Campus Drive, West Jefferson, West Jefferson, Ashe County, North Carolina, United States, 28694"
60302,28657,Avery County Schools,Avery County High,State Of North Carolina,36.07,-81.92,"401, Avery Co High School Road, Newland, Newland No. 2, Avery County, North Carolina, United States, 28657, 8959"
60700,28657,Avery County Schools,Avery High STEM Academy,State Of North Carolina,36.07,-81.92,"401, Avery Co High School Road, Newland, Newland No. 2, Avery County, North Carolina, United States, 28657, 8959"
60701,28657,Avery County Schools,Avery High Viking Academy,State Of North Carolina,36.07,-81.92,"401, Avery Co High School Road, Newland, Newland No. 2, Avery County, North Carolina, United States, 28657, 8959"
70311,27889,Beaufort County Schools,Beaufort Co Early College High,State Of North Carolina,35.6,-77.12,"5337, U.S. 264, Washington, Washington, Beaufort County, North Carolina, United States, 27889"
70330,27865,Beaufort County Schools,Northside High, Pinetown,35.54,-76.73,"7868, Free Union Church Road, Pinetown, Pantego, Beaufort County, North Carolina, United States, 27865, 9550"
70339,27817,Beaufort County Schools,Southside High,State Of North Carolina,35.45,-77.06,"5700, North Carolina 33, Chocowinity, Chocowinity, Beaufort County, North Carolina, United States, 27817"
70342,27889,Beaufort County Schools,Washington High,State Of North Carolina,35.56,-77.02,"400, Slatestone Road, Washington, Long Acre, Beaufort County, North Carolina, United States, 27889"
80311,27983,Bertie County Schools,Bertie Early College High,State Of North Carolina,36.03,-77.01,"819, Governors Road, Windsor, Windsor, Bertie County, North Carolina, United States, 27983, 7650"
80312,27983,Bertie County Schools,Bertie High,State Of North Carolina,36.05,-76.97,"716, U.S. 13, Windsor, Windsor, Bertie County, North Carolina, United States, 27983"
80700,27983,Bertie County Schools,Bertie STEM High,State Of North Carolina,36.05,-76.97,"716, U.S. 13, Windsor, Windsor, Bertie County, North Carolina, United States, 27983"
90330,28337,Bladen County Schools,East Bladen High,State Of North Carolina,34.58,-78.53,"5600, North Carolina 87, Elizabethtown, Elizabethtown, Bladen County, North Carolina, United States, 28337, 4898"
90368,28320,Bladen County Schools,West Bladen High,State Of North Carolina,34.64,-78.74,"1600, North Carolina 410, Bladenboro, Bethel, Bladen County, North Carolina, United States, 28320"
100307,28422,Brunswick County Schools,Brunswick County Early College,State Of North Carolina,34.04,-78.23,"Administrative Building & Student Center, 50, College Road Northeast, Bolivia, Lockwoods Folly, Brunswick County, North Carolina, United States, 28422"
100326,28451,Brunswick County Schools,North Brunswick High,State Of North Carolina,34.24,-78.02,"114, Scorpion Drive Northeast, Leland, Northwest, Brunswick County, North Carolina, United States, 28451, 9101"
100334,28461,Brunswick County Schools,South Brunswick High,State Of North Carolina,34.01,-78.04,"280, Cougar Road, Southport, Town Creek, Brunswick County, North Carolina, United States, 28461, 9006"
100348,28470,Brunswick County Schools,West Brunswick High,State Of North Carolina,33.98,-78.41,"550, Whiteville Road Northwest, Shallotte, Shallotte, Brunswick County, North Carolina, United States, 28470, 6556"
110303,28778,Buncombe County Schools,Community High School,State Of North Carolina,35.6,-82.4,"235, Old US Highway 70, Swannanoa, Swannanoa, Buncombe County, North Carolina, United States, 28778, 2318"
110304,28803,Buncombe County Schools,Reynolds High,State Of North Carolina,35.55,-82.48,"1, Rocket Drive, Asheville, Asheville, Buncombe County, North Carolina, United States, 28803, 9100"
110322,28801,Buncombe County Schools,Early College,State Of North Carolina,35.57,-82.55,"340, Victoria Road, Asheville, Buncombe County, North Carolina, United States, 28801"
110323,28801,Buncombe County Schools,Middle College,State Of North Carolina,35.57,-82.55,"340, Victoria Road, Asheville, Buncombe County, North Carolina, United States, 28801"
110336,28711,Buncombe County Schools,Owen High,State Of North Carolina,35.61,-82.37,"99, Lake Eden Road, Black Mountain, Black Mountain, Buncombe County, North Carolina, United States, 28711, 8849"
110340,28806,Buncombe County Schools,Erwin High,State Of North Carolina,35.62,-82.63,"60, Lees Creek Road, Asheville, Leicester, Buncombe County, North Carolina, United States, 28806, 4713"
110352,28715,Buncombe County Schools,Enka High,State Of North Carolina,35.53,-82.67,"475, Enka Lake Road, Candler, Lower Hominy, Buncombe County, North Carolina, United States, 28715"
110380,28787,Buncombe County Schools,North Buncombe High,State Of North Carolina,35.74,-82.56,"890, Clarks Chapel Road, Weaverville, Flat Creek, Buncombe County, North Carolina, United States, 28787"
110416,28803,Buncombe County Schools,Roberson High,State Of North Carolina,35.49,-82.54,"250, Overlook Road, Asheville, Buncombe County, North Carolina, United States, 28803"
110500,28806,Buncombe County Schools,Nesbitt Discovery Academy,State Of North Carolina,35.61,-82.58,"10, 175, Bingham Road, Asheville, Buncombe County, North Carolina, United States, 28806"
111302,28803,Asheville City Schools,Asheville High,State Of North Carolina,35.57,-82.55,"419, McDowell Street, Asheville, Buncombe County, North Carolina, United States, 28803, 2610"
111700,28803,Asheville City Schools,School of Inquiry and Life Sciences,State Of North Carolina,35.57,-82.55,"419, McDowell Street, Asheville, Buncombe County, North Carolina, United States, 28803, 2610"
120310,28655,Burke County Schools,Burke Middle College,State Of North Carolina,35.72,-81.69,"1001, Burkemont Avenue, Morganton, Morganton, Burke County, North Carolina, United States, 28655"
120314,28612,Burke County Schools,East Burke High,State Of North Carolina,35.72,-81.48,"3695, East Burke Boulevard, Connelly Springs, Icard, Burke County, North Carolina, United States, 28612"
120318,28655,Burke County Schools,Freedom High,State Of North Carolina,35.74,-81.72,"511, Independence Boulevard, Morganton, Quaker Meadows, Burke County, North Carolina, United States, 28655, 5502"
120346,28690,Burke County Schools,Jimmy C Draughn High School,State Of North Carolina,35.74,-81.57,"709, Lovelady Road Northeast, Valdese, Lovelady, Burke County, North Carolina, United States, 28690, 8856"
120370,28655,Burke County Schools,Robert L. Patton High School,State Of North Carolina,35.7,-81.67,"701, Enola Road, Morganton, Morganton, Burke County, North Carolina, United States, 28655, 4624"
130307,28027,Cabarrus County Schools,Cox Mill High School,State Of North Carolina,35.4,-80.73,"1355, Cox Mill Road, Concord, 2, Poplar Tent, Cabarrus County, North Carolina, United States, 28027"
130310,28025,Cabarrus County Schools,Central Cabarrus High,State Of North Carolina,35.36,-80.58,"505, North Carolina 49, Concord, 11, Central Cabarrus, Cabarrus County, North Carolina, United States, 28025, 9219"
130314,28025,Cabarrus County Schools,Concord High,State Of North Carolina,35.43,-80.58,"481, Burrage Road Northeast, Concord, 12, Concord, Cabarrus County, North Carolina, United States, 28025, 2623"
130316,28027,Cabarrus County Schools,Jay M Robinson High,State Of North Carolina,35.36,-80.66,"300, Pitts School Road Southwest, Concord, 2, Poplar Tent, Cabarrus County, North Carolina, United States, 28027, 3903"
130324,28124,Cabarrus County Schools,Mount Pleasant High,State Of North Carolina,35.41,-80.48,"700, Walker Road, Mount Pleasant, 8, Mount Pleasant, Cabarrus County, North Carolina, United States, 28124, 9596"
130326,28027,Cabarrus County Schools,Northwest Cabarrus High,State Of North Carolina,35.45,-80.66,"5130, Northwest Cabarrus Drive, Concord, 4, Kannapolis, Cabarrus County, North Carolina, United States, 28027, 7624"
130332,28075,Cabarrus County Schools,Hickory Ridge High,State Of North Carolina,35.31,-80.63,"7321, Raging Ridge Road, Harrisburg, 1, Harrisburg, Cabarrus County, North Carolina, United States, 28075"
130349,28027,Cabarrus County Schools,Cabarrus Early College of Technology,State Of North Carolina,35.42,-80.61,"670, Concord Parkway North, Concord, 4, Kannapolis, Cabarrus County, North Carolina, United States, 28027"
130350,28027,Cabarrus County Schools,Cabarrus-Kannapolis Early Coll,State Of North Carolina,35.44,-80.66,"1531, Trinity Church Road, Concord, 4, Kannapolis, Cabarrus County, North Carolina, United States, 28027, 7601"
132304,28083,Kannapolis City Schools,A L Brown High,State Of North Carolina,35.5,-80.62,"415, East 1st Street, Kannapolis, 4, Kannapolis, Cabarrus County, North Carolina, United States, 28083, 4501"
140305,28638,Caldwell County Schools,Caldwell Career Cen Mid. Coll.,State Of North Carolina,35.85,-81.48,"2857, Hickory Boulevard, Hudson, Hudson, Caldwell County, North Carolina, United States, 28638"
140309,28638,Caldwell County Schools,Caldwell Early College,State Of North Carolina,35.85,-81.48,"2859, Hickory Boulevard, Hudson, Hudson, Caldwell County, North Carolina, United States, 28638"
140348,28645,Caldwell County Schools,Hibriten High,State Of North Carolina,35.93,-81.49,"1350, Panther Trail, Lenoir, Lower Creek, Caldwell County, North Carolina, United States, 28645"
140386,28638,Caldwell County Schools,South Caldwell High,State Of North Carolina,35.82,-81.45,"7035, Spartan Drive, Hudson, Lovelady, Caldwell County, North Carolina, United States, 28638, 9056"
140390,28645,Caldwell County Schools,West Caldwell High,State Of North Carolina,35.89,-81.59,"300, West Caldwell Drive, Lenoir, Lenoir, Caldwell County, North Carolina, United States, 28645, 9672"
150304,27921,Camden County Schools,Camden County High,State Of North Carolina,36.33,-76.17,"103, U.S. Highway 158 West, Camden, Courthouse, Camden County, North Carolina, United States, 27921"
150350,27921,Camden County Schools,Camden Early College High,State Of North Carolina,36.33,-76.17,"103, U.S. Highway 158 West, Camden, Courthouse, Camden County, North Carolina, United States, 27921"
160313,28516,Carteret County Public Schools,East Carteret High,State Of North Carolina,34.78,-76.63,"3263, U.S. 70, Beaufort, Beaufort, Carteret County, North Carolina, United States, 28516"
160314,28570,Carteret County Public Schools,Croatan High,State Of North Carolina,34.72,-76.95,"3355, Highway 24, Newport, White Oak, Carteret County, North Carolina, United States, 28570, 5503"
160344,28557,Carteret County Public Schools,West Carteret High,State Of North Carolina,34.74,-76.79,"4700, Country Club Road, Morehead City, Morehead, Carteret County, North Carolina, United States, 28557, 6218"
170316,27379,Caswell County Schools,Bartlett Yancey High,State Of North Carolina,36.4,-79.33,"466, Main Street, Yanceyville, Yanceyville, Caswell County, North Carolina, United States, 27379"
180308,28609,Catawba County Schools,Bandys High,State Of North Carolina,35.65,-81.08,"5040, East Bandys Cross Road, Catawba, Catawba, Catawba County, North Carolina, United States, 28609"
180320,28610,Catawba County Schools,Bunker Hill High,State Of North Carolina,35.75,-81.12,"4675, Oxford School Road, Claremont, Clines, Catawba County, North Carolina, United States, 28610, 9468"
180325,28602,Catawba County Schools,Challenger Early College High,State Of North Carolina,35.7,-81.29,"2550, US Highway 70 Southeast, Hickory, Hickory, Catawba County, North Carolina, United States, 28602, 8302"
180340,28658,Catawba County Schools,Fred T Foard High,State Of North Carolina,35.62,-81.37,"3407, Plateau Road, Newton, Jacobs Fork, Catawba County, North Carolina, United States, 28658"
180348,28650,Catawba County Schools,Maiden High,State Of North Carolina,35.58,-81.22,"600, West Main Street, Maiden, Newton, Catawba County, North Carolina, United States, 28650"
180376,28601,Catawba County Schools,Saint Stephens High,State Of North Carolina,35.77,-81.27,"3205, 34th Street Drive Northeast, Hickory, Clines, Catawba County, North Carolina, United States, 28601, 7702"
181322,28601,Hickory City Schools,Hickory High,State Of North Carolina,35.75,-81.33,"1234, 3rd Street Northeast, Hickory, Hickory, Catawba County, North Carolina, United States, 28601, 2605"
182316,28658,Newton Conover City Schools,Newton-Conover High,State Of North Carolina,35.68,-81.23,"338, West 15th Street, Newton, Newton, Catawba County, North Carolina, United States, 28658, 2906"
182700,28658,Newton Conover City Schools,Discovery High School,State Of North Carolina,35.68,-81.22,"301, West 18th Street, Newton, Newton, Catawba County, North Carolina, United States, 28658, 2927"
190310,27344,Chatham County Schools,SAGE Academy,State Of North Carolina,35.73,-79.46,"501, Martin Luther King Junior Boulevard, Siler City, Matthews, Chatham County, North Carolina, United States, 27344"
190316,27207,Chatham County Schools,Chatham Central High,State Of North Carolina,35.6,-79.4,"14950, North Carolina 902, Bear Creek, Bear Creek, Chatham County, North Carolina, United States, 27207, 8670"
190336,27344,Chatham County Schools,Jordan Matthews High,State Of North Carolina,35.72,-79.45,"910, East Cardinal Street, Siler City, Matthews, Chatham County, North Carolina, United States, 27344, 3308"
190342,27312,Chatham County Schools,Northwood High,State Of North Carolina,35.76,-79.18,"310, Northwood High School Road, Pittsboro, Center, Chatham County, North Carolina, United States, 27312"
190501,27344,Chatham County Schools,Chatham School of Science & Engineering,State Of North Carolina,35.73,-79.46,"501, Martin Luther King Junior Boulevard, Siler City, Matthews, Chatham County, North Carolina, United States, 27344"
200308,28901,Cherokee County Schools,Andrews High,State Of North Carolina,35.2,-83.82,"50, High School Drive, Andrews, Valleytown, Cherokee County, North Carolina, United States, 28901, 8059"
200314,28906,Cherokee County Schools,Hiwassee Dam High,State Of North Carolina,35.1,-84.22,"267, Blue Eagle Circle, Murphy, Shoal Creek, Cherokee County, North Carolina, United States, 28906"
200328,28906,Cherokee County Schools,Murphy High,State Of North Carolina,35.1,-84.02,"234, High School Circle, Murphy, Murphy, Cherokee County, North Carolina, United States, 28906, 5110"
200350,28906,Cherokee County Schools,Tri-County Early College High,State Of North Carolina,35.08,-83.97,"4650, East U.S. Highway 64 Alternate, Murphy, Murphy, Cherokee County, North Carolina, United States, 28906"
210312,27932,Edenton-Chowan Schools,John A Holmes High,State Of North Carolina,36.07,-76.6,"600, Woodard Street, Edenton, 1, Edenton, Chowan County, North Carolina, United States, 27932, 1960"
220310,28904,Clay County Schools,Hayesville High,State Of North Carolina,35.04,-83.82,"205, Yellow Jacket Drive, Hayesville, Hayesville, Clay County, North Carolina, United States, 28904, 9763"
230312,28090,Cleveland County Schools,Burns High,State Of North Carolina,35.42,-81.53,"307, East Stagecoach Trail, Lawndale, 9, Double Shoals, Cleveland County, North Carolina, United States, 28090, 9715"
230322,28152,Cleveland County Schools,Cleveland ECHS,State Of North Carolina,35.28,-81.49,"1800, East Marion Street, Shelby, 6, Shelby, Cleveland County, North Carolina, United States, 28152"
230324,28152,Cleveland County Schools,Crest High,State Of North Carolina,35.27,-81.61,"800, Old Boiling Springs Road, Shelby, 6, Shelby, Cleveland County, North Carolina, United States, 28152, 0519"
230350,28086,Cleveland County Schools,Kings Mountain High,State Of North Carolina,35.23,-81.37,"500, Phifer Road, Kings Mountain, 4, Kings Mountain, Cleveland County, North Carolina, United States, 28086, 3723"
230361,28152,Cleveland County Schools,Shelby High,State Of North Carolina,35.27,-81.54,"230, East Dixon Boulevard, Shelby, 6, Shelby, Cleveland County, North Carolina, United States, 28152, 6766"
240334,28450,Columbus County Schools,East Columbus High,State Of North Carolina,34.34,-78.5,"32, Gator Lane, Lake Waccamaw, Waccamaw, Columbus County, North Carolina, United States, 28450, 2257"
240371,28463,Columbus County Schools,South Columbus High,State Of North Carolina,34.17,-78.82,"40, Stallion Drive, Tabor City, Williams, Columbus County, North Carolina, United States, 28463, 9626"
240373,28472,Columbus County Schools,CCCA - Fair Bluff /Southeastern Campuses,State Of North Carolina,34.33,-78.79,"4564, Chadbourn Highway, Whiteville, Chadbourn, Columbus County, North Carolina, United States, 28472, 5423"
240380,28430,Columbus County Schools,West Columbus High,State Of North Carolina,34.33,-78.92,"7294, Andrew Jackson Highway Southwest, Cerro Gordo, Cerro Gordo, Columbus County, North Carolina, United States, 28430"
241316,28472,Whiteville City Schools,Whiteville High,State Of North Carolina,34.33,-78.71,"413, North Lee Street, Whiteville, Whiteville, Columbus County, North Carolina, United States, 28472, 3229"
250314,28562,Craven County Schools,Craven Early College High,State Of North Carolina,35.11,-77.1,"800, College Court, New Bern, 8, Craven County, North Carolina, United States, 28562"
250321,28532,Craven County Schools,Early College EAST High,State Of North Carolina,34.88,-76.9,"104, Middle School Lane, Havelock, 6, Craven County, North Carolina, United States, 28532"
250340,28532,Craven County Schools,Havelock High,State Of North Carolina,34.88,-76.89,"101, Webb Boulevard, Havelock, 6, Craven County, North Carolina, United States, 28532, 1952"
250356,28562,Craven County Schools,New Bern High,State Of North Carolina,35.1,-77.12,"4200, Academic Drive, New Bern, 8, Craven County, North Carolina, United States, 28562, 9692"
250372,28586,Craven County Schools,West Craven High,State Of North Carolina,35.24,-77.14,"2600, Streets Ferry Road, Vanceboro, 1, Craven County, North Carolina, United States, 28586, 8353"
260318,28306,Cumberland County Schools,Jack Britt High,State Of North Carolina,34.98,-79.01,"7403, Rockfish Road, Jack Britt, Fayetteville, Rockfish, Cumberland County, North Carolina, United States, 28306, 7296"
260322,28304,Cumberland County Schools,Douglas Byrd High,State Of North Carolina,35.03,-78.95,"1624, Ireland Drive, Douglas Byrd, Fayetteville, Pearces Mill, Cumberland County, North Carolina, United States, 28304, 4363"
260325,28301,Cumberland County Schools,Cape Fear High,State Of North Carolina,35.03,-78.76,"4762, Clinton Road, Cape Fear, Fayetteville, Cedar Creek, Cumberland County, North Carolina, United States, 28312, 8523"
260347,NC,Cumberland County Schools,Cumberland International Early CollegeHS,State Of North Carolina,35.07,-78.9,"1298, Murchison Road, Fayetteville, North Carolina, United States, 28301"
260354,28301,Cumberland County Schools,Cross Creek Early College,State Of North Carolina,35.08,-78.89,"1200, Murchison Road, Fayetteville, Cross Creek, Cumberland County, North Carolina, United States, 28301, 4252"
260357,28348,Cumberland County Schools,Grays Creek High,State Of North Carolina,34.92,-78.9,"5301, Celebration Drive, Gray's Creek, Hope Mills, Rockfish, Cumberland County, North Carolina, United States, 28348, 8375"
260359,28301,Cumberland County Schools,E E Smith High,State Of North Carolina,35.08,-78.9,"1800, Seabrook Road, Fayetteville, Cross Creek, Cumberland County, North Carolina, United States, 28301, 0530"
260374,28303,Cumberland County Schools,Alger B. Wilkins High School,State Of North Carolina,35.08,-78.95,"1429, Skibo Road, Terry Sanford, Fayetteville, Seventy-First, Cumberland County, North Carolina, United States, 28303, 3477"
260388,28306,Cumberland County Schools,Massey Hill Classical High,State Of North Carolina,35.03,-78.89,"1062, Southern Avenue, Douglas Byrd, Fayetteville, Cross Creek, Cumberland County, North Carolina, United States, 28306, 1766"
260408,28311,Cumberland County Schools,Pine Forest High,State Of North Carolina,35.16,-78.89,"525, Andrews Road, Pine Forest, Fayetteville, Carvers Creek, Cumberland County, North Carolina, United States, 28311"
260411,28301,Cumberland County Schools,Reid Ross Classical High,State Of North Carolina,35.1,-78.88,"3200, Ramsey Street, Fayetteville, Cross Creek, Cumberland County, North Carolina, United States, 28301, 3118"
260424,28304,Cumberland County Schools,Seventy-First High,State Of North Carolina,35.04,-79.01,"6764, Raeford Road, Seventy-First, Fayetteville, Seventy-First, Cumberland County, North Carolina, United States, 28304, 2771"
260427,28348,Cumberland County Schools,South View High,State Of North Carolina,34.98,-78.93,"4184, Elk Road, South View, Hope Mills, Rockfish, Cumberland County, North Carolina, United States, 28348"
260446,28303,Cumberland County Schools,Terry Sanford High,State Of North Carolina,35.06,-78.92,"2301, Fort Bragg Road, Terry Sanford, Fayetteville, Cross Creek, Cumberland County, North Carolina, United States, 28303"
260449,28301,Cumberland County Schools,Ramsey Street High,State Of North Carolina,35.08,-78.88,"117, Quincy Street, Terry Sanford, Fayetteville, Cross Creek, Cumberland County, North Carolina, United States, 28301, 4353"
260455,28303,Cumberland County Schools,Westover High,State Of North Carolina,35.08,-78.99,"277, Bonanza Drive, Westover, Fayetteville, Seventy-First, Cumberland County, North Carolina, United States, 28303"
260700,28303,Cumberland County Schools,Cumberland Polytechnic,State Of North Carolina,35.07,-78.93,"2201, Hull Road, Terry Sanford, Fayetteville, Cross Creek, Cumberland County, North Carolina, United States, 28303"
270306,27917,Currituck County Schools,Currituck County High,State Of North Carolina,36.37,-75.97,"4203, Caratoke Highway, Barco, Crawford, Currituck County, North Carolina, United States, 27917, 9515"
270311,27929,Currituck County Schools,The JP Knapp ECH (i)School,State Of North Carolina,36.44,-76.02,"2966, Caratoke Highway, Currituck, Crawford, Currituck County, North Carolina, United States, 27929"
280306,27954,Dare County Schools,Dare County Alternative School,State Of North Carolina,35.89,-75.66,"132, Russell Twiford Road, Manteo, Nags Head, Dare County, North Carolina, United States, 27954, 9222"
280316,27954,Dare County Schools,Manteo High School,State Of North Carolina,35.91,-75.67,"829, Wingina Avenue, Manteo, Nags Head, Dare County, North Carolina, United States, 27954, 9103"
280330,27948,Dare County Schools,First Flight High School,State Of North Carolina,36.01,-75.67,"100, Veterans Drive, Kill Devil Hills, Atlantic, Dare County, North Carolina, United States, 27948, 6965"
290308,27292,Davidson County Schools,Central Davidson High,State Of North Carolina,35.74,-80.22,"2747, North Carolina 47, Lexington, Silver Hill, Davidson County, North Carolina, United States, 27292, 8626"
290315,27295,Davidson County Schools,Davidson Early College,State Of North Carolina,35.87,-80.18,"Thomasville, North Carolina, United States, 27360"
290324,27360,Davidson County Schools,East Davidson High,State Of North Carolina,35.85,-80.1,"1408, Lake Road, Thomasville, Thomasville, Davidson County, North Carolina, United States, 27360, 6041"
290336,27360,Davidson County Schools,Ledford Senior High,State Of North Carolina,35.96,-80.13,"140, Jesse Green Rd, Thomasville, Abbotts Creek, Davidson County, NC, United States, 27360"
290348,27295,Davidson County Schools,North Davidson High,State Of North Carolina,35.86,-80.37,"7227, West Old US Highway 64, Lexington, Tyro, Davidson County, North Carolina, United States, 27295"
290365,27239,Davidson County Schools,South Davidson High,State Of North Carolina,35.67,-80.1,"14956, North Carolina 109, Denton, Emmons, Davidson County, North Carolina, United States, 27239, 8581"
290388,27295,Davidson County Schools,West Davidson High,State Of North Carolina,35.8,-80.37,"200, Dragon Drive, Lexington, Tyro, Davidson County, North Carolina, United States, 27295"
290389,27292,Davidson County Schools,Yadkin Valley Regional Career Academy,State Of North Carolina,35.82,-80.19,"2065, East Holly Grove Road, Lexington, Conrad Hill, Davidson County, North Carolina, United States, 27292, 9795"
291336,27292,Lexington City Schools,Lexington Senior High,State Of North Carolina,35.83,-80.25,"26, Penry Street, Lexington, Lexington, Davidson County, North Carolina, United States, 27292"
292324,27360,Thomasville City Schools,Thomasville High,State Of North Carolina,35.9,-80.08,"410, Unity Street, Thomasville, Thomasville, Davidson County, North Carolina, United States, 27360, 2532"
300312,27028,Davie County Schools,Davie County High,State Of North Carolina,35.97,-80.54,"180, War Eagle Drive, Mocksville, Farmington, Davie County, North Carolina, United States, 27028"
300314,27028,Davie County Schools,Davie County Early College High,State Of North Carolina,35.87,-80.55,"1211, Salisbury Road, Mocksville, Mocksville, Davie County, North Carolina, United States, 27028, 9302"
310338,28349,Duplin County Schools,Duplin Early College High,State Of North Carolina,34.95,-77.98,"212, James Sprunt Drive, Kenansville, Kenansville, Duplin County, North Carolina, United States, 28349"
310344,28518,Duplin County Schools,East Duplin High,State Of North Carolina,34.94,-77.78,"394, North Carolina 111, Beulaville, Limestone, Duplin County, North Carolina, United States, 28518, 8532"
310352,28398,Duplin County Schools,James Kenan High,State Of North Carolina,34.99,-78.04,"1241, Nc 24 And 50 Highway, Warsaw, Warsaw, Duplin County, North Carolina, United States, 28398"
310392,28464,Duplin County Schools,Wallace-Rose Hill High,State Of North Carolina,34.77,-78,"602, High School Road, Teachey, Island Creek, Duplin County, North Carolina, United States, 28464"
320309,NC,Durham Public Schools,J D Clement Early College HS,State Of North Carolina,35.97,-78.9,"1801, Fayetteville Street, North Carolina Central University, Durham, Durham, Durham County, North Carolina, United States, 27707"
320312,27707,Durham Public Schools,C E Jordan High,State Of North Carolina,35.92,-78.96,"6806, Garrett Road, Durham, Triangle, Durham County, North Carolina, United States, 27707, 5634"
320317,27704,Durham Public Schools,City of Medicine Academy,State Of North Carolina,36.04,-78.9,"301, Crutchfield Street, Stadium Heights, Durham, Durham, Durham County, North Carolina, United States, 27704"
320322,27703,Durham Public Schools,Durhams Performance Learning Center,State Of North Carolina,35.99,-78.88,"401, North Driver Street, East Durham, Durham, Durham, Durham County, North Carolina, United States, 27703, 3007"
320325,27707,Durham Public Schools,Hillside High,State Of North Carolina,35.95,-78.9,"3727, Fayetteville Street, Durham, Triangle, Durham County, North Carolina, United States, 27707"
320353,27703,Durham Public Schools,Middle College HS @ DTCC,State Of North Carolina,35.98,-78.88,"1637, East Lawson Street, Durham, Durham, Durham County, North Carolina, United States, 27703, 5023"
320356,27712,Durham Public Schools,Northern High,State Of North Carolina,36.09,-78.91,"117, Tom Wilkinson Road, Durham, Lebanon, Durham County, North Carolina, United States, 27712, 1432"
320365,27712,Durham Public Schools,Riverside High, Durham,36.07,-78.94,"3218, Rose of Sharon Road, Durham, Durham, Durham County, North Carolina, United States, 27712, 3130"
320368,27703,Durham Public Schools,Southern School of Energy and Sustainabi,State Of North Carolina,36,-78.83,"800, Clayton Road, Durham, Oak Grove, Durham County, North Carolina, United States, 27703, 2606"
320701,27707,Durham Public Schools,Hillside New Tech High,State Of North Carolina,35.95,-78.9,"3727, Fayetteville Street, Durham, Triangle, Durham County, North Carolina, United States, 27707"
330326,27886,Edgecombe County Public School,Edgecombe Early College High,State Of North Carolina,35.88,-77.57,"2009, West Wilson Street, Tarboro, 1, Tarboro, Edgecombe County, North Carolina, United States, 27886, 9361"
330328,27886,Edgecombe County Public School,North Edgecombe High,State Of North Carolina,35.99,-77.58,"7589, North Carolina 33, Tarboro, 5, Lower Fishing Creek, Edgecombe County, North Carolina, United States, 27886, 8884"
330350,27864,Edgecombe County Public School,SouthWest Edgecombe High,State Of North Carolina,35.84,-77.66,"5912, North Carolina 43, Pinetops, 13, Cokey, Edgecombe County, North Carolina, United States, 27864"
330358,27886,Edgecombe County Public School,Tarboro High,State Of North Carolina,35.9,-77.56,"1400, West Howard Avenue, Tarboro, 1, Tarboro, Edgecombe County, North Carolina, United States, 27886, 4122"
340311,27101,Forsyth County Schools,Atkins Academic & Tech High,State Of North Carolina,36.11,-80.2,"3605, Old Greensboro Road, Winston-Salem, Winston, Forsyth County, North Carolina, United States, 27101"
340330,27105,Forsyth County Schools,Carver High,State Of North Carolina,36.13,-80.21,"3545, Carver School Road, Winston-Salem, Winston, Forsyth County, North Carolina, United States, 27105"
340332,27101,Forsyth County Schools,Career Center,State Of North Carolina,36.11,-80.23,"910, Highland Court, Winston-Salem, Winston, Forsyth County, North Carolina, United States, 27101, 3125"
340336,27101,Forsyth County Schools,Carter High School,State Of North Carolina,36.11,-80.23,"851, Highland Court, Winston-Salem, Winston, Forsyth County, North Carolina, United States, 27101, 3125"
340362,27103,Forsyth County Schools,Early College of Forsyth Co,State Of North Carolina,36.07,-80.27,"2100, Silas Creek Parkway, Winston-Salem, Winston, Forsyth County, North Carolina, United States, 27103"
340364,27284,Forsyth County Schools,East Forsyth High,State Of North Carolina,36.12,-80.15,"2500, West Mountain Street, Kernersville, Middle Fork II, Forsyth County, North Carolina, United States, 27284, 8017"
340382,27284,Forsyth County Schools,Robert B Glenn High School,State Of North Carolina,36.07,-80.11,"1600, Union Cross Road, Kernersville, Winston, Forsyth County, North Carolina, United States, 27284, 7537"
340446,27103,Forsyth County Schools,Middle College of Forsyth Cnty,State Of North Carolina,36.07,-80.27,"2100, Silas Creek Parkway, Winston-Salem, Winston, Forsyth County, North Carolina, United States, 27103"
340454,27106,Forsyth County Schools,Mount Tabor High School,State Of North Carolina,36.13,-80.31,"342, Petree Road, Winston-Salem, Winston, Forsyth County, North Carolina, United States, 27106, 4400"
340460,27105,Forsyth County Schools,North Forsyth High,State Of North Carolina,36.17,-80.28,"5705, Shattalon Drive, Winston-Salem, Winston, Forsyth County, North Carolina, United States, 27105, 1332"
340486,27127,Forsyth County Schools,Parkland High,State Of North Carolina,36.06,-80.26,"1600, Brewer Road, Winston-Salem, Winston, Forsyth County, North Carolina, United States, 27127, 3857"
340495,27040,Forsyth County Schools,Ronald W Reagan High School,State Of North Carolina,36.17,-80.36,"3750, Transou Road, Pfafftown, Vienna, Forsyth County, North Carolina, United States, 27040, 9258"
340496,27104,Forsyth County Schools,R J Reynolds High,State Of North Carolina,36.1,-80.27,"301, Hawthorne Road Northwest, Winston-Salem, Winston, Forsyth County, North Carolina, United States, 27104"
340542,27051,Forsyth County Schools,Walkertown High,State Of North Carolina,36.18,-80.15,"5240, Sullivantown Road, Walkertown, Salem Chapel, Forsyth County, North Carolina, United States, 27051"
340556,27012,Forsyth County Schools,West Forsyth High,State Of North Carolina,36.06,-80.39,"1735, Lewisville Clemmons Road, Clemmons, Lewisville, Forsyth County, North Carolina, United States, 27012"
350308,27508,Franklin County Schools,Bunn High,State Of North Carolina,35.95,-78.25,"29, Bunn Elementary School Road, Bunn, Dunn, Franklin County, North Carolina, United States, 27508"
350317,27549,Franklin County Schools,Franklin County Early College,State Of North Carolina,36.09,-78.33,"8150, North Carolina 56, Louisburg, Louisburg, Franklin County, North Carolina, United States, 27549"
350321,27525,Franklin County Schools,Franklinton High,State Of North Carolina,36.07,-78.44,"910, Cedar Creek Road, Franklinton, Franklinton, Franklin County, North Carolina, United States, 27525"
350336,27549,Franklin County Schools,Louisburg High,State Of North Carolina,36.11,-78.3,"201, Allen Lane, Louisburg, Louisburg, Franklin County, North Carolina, United States, 27549, 2102"
360310,28054,Gaston County Schools,Ashbrook High,State Of North Carolina,35.24,-81.13,"2222, South New Hope Road, Gastonia, Gastonia, Gaston County, North Carolina, United States, 28054, 8428"
360336,28016,Gaston County Schools,Bessemer City High,State Of North Carolina,35.3,-81.28,"119, Yellow Jacket Lane, Bessemer City, Crowders Mountain, Gaston County, North Carolina, United States, 28016, 2778"
360337,NC,Gaston County Schools,Gaston Early College High School,State Of North Carolina,35.31,-81.19,"201, U.S. 321, Dallas, Dallas, Gaston County, North Carolina, United States, 28034"
360360,28021,Gaston County Schools,Cherryville High,State Of North Carolina,35.39,-81.38,"313, Ridge Avenue, Cherryville, Cherryville, Gaston County, North Carolina, United States, 28021, 2451"
360378,28012,Gaston County Schools,Stuart W Cramer High,State Of North Carolina,35.25,-81.06,"101, Lakewood Road, Belmont, South Point, Gaston County, North Carolina, United States, 28012, 2973"
360390,28120,Gaston County Schools,East Gaston High,State Of North Carolina,35.32,-81.08,"1744, Lane Road, Mount Holly, Riverbend, Gaston County, North Carolina, United States, 28120, 9037"
360396,28056,Gaston County Schools,Forestview High,State Of North Carolina,35.18,-81.13,"5545, Union Road, Gastonia, South Point, Gaston County, North Carolina, United States, 28056, 8127"
360418,28052,Gaston County Schools,Highland Sch of Technology,State Of North Carolina,35.28,-81.19,"1600, North Morris Street, Gastonia, Gastonia, Gaston County, North Carolina, United States, 28052"
360428,28052,Gaston County Schools,Hunter Huss High,State Of North Carolina,35.24,-81.21,"1518, Edgefield Avenue, Gastonia, Gastonia, Gaston County, North Carolina, United States, 28052, 5275"
360470,28034,Gaston County Schools,North Gaston High,State Of North Carolina,35.33,-81.18,"1133, Ratchford Road, Dallas, Dallas, Gaston County, North Carolina, United States, 28034, 6500"
360494,28012,Gaston County Schools,South Point High,State Of North Carolina,35.22,-81.04,"906, South Point Road, Belmont, South Point, Gaston County, North Carolina, United States, 28012"
370312,27938,Gates County Schools,Gates County Senior High,State Of North Carolina,36.45,-76.69,"88, U.S. 158, Gatesville, Gatesville, Gates County, North Carolina, United States, 27938"
390322,27581,Granville County Schools,Granville Central High,State Of North Carolina,36.2,-78.68,"2043, Sanders Road, Stem, Tally Ho, Granville County, North Carolina, United States, 27581"
390323,27522,Granville County Schools,Granville Early College High,State Of North Carolina,36.14,-78.72,"1552, South Campus Drive, Creedmoor, Dutchville, Granville County, North Carolina, United States, 27522"
390324,27565,Granville County Schools,J. F. Webb High,State Of North Carolina,36.34,-78.6,"3200, Webb School Road, Oxford, Oxford, Granville County, North Carolina, United States, 27565, 7327"
390352,27522,Granville County Schools,South Granville High,State Of North Carolina,36.12,-78.67,"701, North Crescent Drive, Creedmoor, Dutchville, Granville County, North Carolina, United States, 27522"
390700,27565,Granville County Schools,JF Webb HS Of Health And Life Sciences,State Of North Carolina,36.34,-78.6,"3200, Webb School Road, Oxford, Oxford, Granville County, North Carolina, United States, 27565, 7327"
400308,28580,Greene County Schools,Greene Central High,State Of North Carolina,35.48,-77.67,"140, School Drive, Snow Hill, Snow Hill, Greene County, North Carolina, United States, 28580, 7288"
400315,28580,Greene County Schools,Greene Early College High,State Of North Carolina,35.48,-77.67,"818, North Carolina 91, Snow Hill, Snow Hill, Greene County, North Carolina, United States, 28580, 7286"
410319,27265,Guilford County Schools,T Wingate Andrews High,State Of North Carolina,35.98,-79.99,"1920, McGuinn Drive, High Point, High Point, Guilford County, North Carolina, United States, 27265, 3332"
410326,27406,Guilford County Schools,Middle College High at Bennett,State Of North Carolina,36.07,-79.78,"610, Gorrell Street, Greensboro, Gilmer, Guilford County, North Carolina, United States, 27406, 1724"
410355,27401,Guilford County Schools,James B Dudley High,State Of North Carolina,36.06,-79.76,"1200, Lincoln Street, Greensboro, Gilmer, Guilford County, North Carolina, United States, 27401"
410358,27249,Guilford County Schools,Eastern Guilford High,State Of North Carolina,36.09,-79.62,"415, Peeden Drive, Gibsonville, Rock Creek, Guilford County, North Carolina, United States, 27249, 8724"
410390,27401,Guilford County Schools,GC Middle College High,State Of North Carolina,36.07,-79.8,"Cowan Humanities Building, 815, West Market Street, College Hill, Greensboro, Morehead, Guilford County, North Carolina, United States, 27401"
410394,27408,Guilford County Schools,Grimsley High,State Of North Carolina,36.08,-79.82,"Cafeteria, 801, Westover Terrace, Greensboro, Morehead, Guilford County, North Carolina, United States, 27408"
410395,27410,Guilford County Schools,Early College at Guilford,State Of North Carolina,36.09,-79.89,"5608, West Friendly Avenue, Greensboro, Morehead, Guilford County, North Carolina, United States, 27410, 4240"
410399,27405,Guilford County Schools,Middle College at GTCC-GSO,State Of North Carolina,36.09,-79.73,"3505, Wendover Avenue East, Greensboro, Gilmer, Guilford County, North Carolina, United States, 27405, 6445"
410401,27282,Guilford County Schools,GTCC Middle College High,State Of North Carolina,36,-79.92,"601, East Main Street, Jamestown, Jamestown, Guilford County, North Carolina, United States, 27282"
410406,27262,Guilford County Schools,High Point Central High,State Of North Carolina,35.96,-80.02,"801, Ferndale Boulevard, High Point, High Point, Guilford County, North Carolina, United States, 27262"
410407,27265,Guilford County Schools,Dorothy Kendall Kearns Academy at HPC,State Of North Carolina,35.98,-79.99,"1710, McGuinn Drive, High Point, High Point, Guilford County, North Carolina, United States, 27265"
410408,27260,Guilford County Schools,Middle College GTCC High Point,State Of North Carolina,35.95,-80,"901, South Main Street, High Point, High Point, Guilford County, North Carolina, United States, 27260"
410458,27282,Guilford County Schools,C Joyner Greene Education Center,State Of North Carolina,36,-79.92,"604, East Main Street, Jamestown, Jamestown, Guilford County, North Carolina, United States, 27282, 9605"
410483,27411,Guilford County Schools,Middle College High @ NC A&T,State Of North Carolina,36.08,-79.77,"1601, East Market Street, Greensboro, Gilmer, Guilford County, North Carolina, United States, 27411"
410484,27301,Guilford County Schools,Northeast Guilford High,State Of North Carolina,36.16,-79.67,"6700, McLeansville Road, McLeansville, Madison, Guilford County, North Carolina, United States, 27301"
410489,27455,Guilford County Schools,Northern Guilford High,State Of North Carolina,36.21,-79.81,"7101, Spencer-Dixon Road, Greensboro, Center Grove, Guilford County, North Carolina, United States, 27455, 8221"
410490,27409,Guilford County Schools,Northwest Guilford High,State Of North Carolina,36.16,-79.95,"5240, Northwest School Road, Greensboro, Oak Ridge, Guilford County, North Carolina, United States, 27409, 9611"
410508,27405,Guilford County Schools,Page High,State Of North Carolina,36.11,-79.79,"201, Alma Pinnix Drive, Old Irving Park, Greensboro, Gilmer, Guilford County, North Carolina, United States, 27405, 4321"
410529,27282,Guilford County Schools,Lucy Ragsdale High,State Of North Carolina,35.99,-79.92,"1000, Lucy Ragsdale Drive, Jamestown, Jamestown, Guilford County, North Carolina, United States, 27282"
410544,27407,Guilford County Schools,Ben L. Smith High School,State Of North Carolina,36.03,-79.85,"2407, South Holden Road, Greensboro, Morehead, Guilford County, North Carolina, United States, 27407, 5718"
410545,27407,Guilford County Schools,The Academy at Smith,State Of North Carolina,36.04,-79.85,"2225, South Holden Road, Greensboro, Morehead, Guilford County, North Carolina, United States, 27407, 4605"
410547,27406,Guilford County Schools,Southeast Guilford High,State Of North Carolina,35.97,-79.7,"4530, Southeast School Road, Greensboro, Clay, Guilford County, North Carolina, United States, 27406, 9784"
410556,27406,Guilford County Schools,Southern Guilford High,State Of North Carolina,35.95,-79.86,"5700, Drake Road, Greensboro, Sumner, Guilford County, North Carolina, United States, 27406, 8824"
410562,27265,Guilford County Schools,Southwest Guilford High,State Of North Carolina,36.05,-79.99,"4364, Barrow Road, High Point, Deep River, Guilford County, North Carolina, United States, 27265"
410569,27411,Guilford County Schools,STEM Early College @ NC A&T SU,State Of North Carolina,36.08,-79.77,"Price Hall, 402, Laurel Street, Greensboro, Gilmer, Guilford County, North Carolina, United States, 27405"
410579,27412,Guilford County Schools,UNCG Early/Middle College,State Of North Carolina,36.07,-79.81,"Mary Channing Coleman Building, 1408, Walker Avenue, Greensboro, Morehead, Guilford County, North Carolina, United States, 27412"
410589,27401,Guilford County Schools,Philip J Weaver Ed Center,State Of North Carolina,36.07,-79.8,"300, South Spring Street, Greensboro, Morehead, Guilford County, North Carolina, United States, 27401, 2343"
410595,27410,Guilford County Schools,Western Guilford High,State Of North Carolina,36.08,-79.91,"409, Friendway Road, Greensboro, Morehead, Guilford County, North Carolina, United States, 27410, 4911"
420346,27850,Halifax County Schools,Northwest Halifax High,State Of North Carolina,36.39,-77.79,"8492, North Carolina 48, Littleton, Littleton, Halifax County, North Carolina, United States, 27850, 8710"
420358,27839,Halifax County Schools,Southeast Halifax High,State Of North Carolina,36.22,-77.55,"16683, North Carolina 125, Halifax, Halifax, Halifax County, North Carolina, United States, 27839"
421316,27870,Roanoke Rapids City Schools,Roanoke Rapids High School,State Of North Carolina,36.46,-77.65,"800, Hamilton Street, Roanoke Rapids, Roanoke Rapids, Halifax County, North Carolina, United States, 27870, 2708"
422310,NC,Weldon City Schools,Roanoke Valley Early College,State Of North Carolina,36.43,-77.62,"100, College Drive, Weldon, Weldon, Halifax County, North Carolina, United States, 27890, 1121"
422315,27890,Weldon City Schools,Weldon STEM High School Career Academies,State Of North Carolina,36.41,-77.61,"415, County Road, Weldon, Weldon, Halifax County, North Carolina, United States, 27890, 1753"
430346,27501,Harnett County Schools,Harnett Central High,State Of North Carolina,35.46,-78.78,"2911, Harnett Central Road, Angier, Black River, Harnett County, North Carolina, United States, 27501, 8478"
430371,28390,Harnett County Schools,Overhills High,State Of North Carolina,35.24,-78.97,"2495, Ray Road, Spring Lake, Anderson Creek, Harnett County, North Carolina, United States, 28390, 7531"
430378,28339,Harnett County Schools,Triton High,State Of North Carolina,35.34,-78.67,"215, Maynard Lake Road, Erwin, Duke, Harnett County, North Carolina, United States, 28339, 8507"
430384,27546,Harnett County Schools,Western Harnett High,State Of North Carolina,35.34,-78.98,"10637, North Carolina 27, Lillington, Barbecue, Harnett County, North Carolina, United States, 27546, 8554"
440326,28721,Haywood County Schools,Central Haywood High,State Of North Carolina,35.53,-82.91,"3215, Broad Street, Clyde, Clyde, Haywood County, North Carolina, United States, 28721"
440346,28721,Haywood County Schools,Haywood Early College,State Of North Carolina,35.53,-82.93,"1500 Building, 185, Freedlander Drive, Clyde, Clyde, Haywood County, North Carolina, United States, 28721, 9441"
440378,28716,Haywood County Schools,Pisgah High,State Of North Carolina,35.52,-82.84,"1, Black Bear Drive, Canton, Beaverdam, Haywood County, North Carolina, United States, 28716"
440390,28786,Haywood County Schools,Tuscola High,State Of North Carolina,35.52,-82.95,"564, Tuscola School Road, Waynesville, Waynesville, Haywood County, North Carolina, United States, 28786, 2701"
450316,28726,Henderson County Schools,East Henderson High,State Of North Carolina,35.3,-82.42,"150, Eagle Pride Drive, East Flat Rock, Hendersonville, Henderson County, North Carolina, United States, 28726"
450334,28791,Henderson County Schools,Hendersonville High,State Of North Carolina,35.32,-82.46,"1, Bearcat Boulevard, Hendersonville, Hendersonville, Henderson County, North Carolina, United States, 28791, 4515"
450341,28792,Henderson County Schools,North Henderson High,State Of North Carolina,35.36,-82.42,"35, Fruitland Road, Hendersonville, Clear Creek, Henderson County, North Carolina, United States, 28792, 8506"
450352,28791,Henderson County Schools,West Henderson High,State Of North Carolina,35.37,-82.52,"3600, Haywood Road, Hendersonville, Hendersonville, Henderson County, North Carolina, United States, 28791, 9700"
450354,NC,Henderson County Schools,Henderson County Early College,State Of North Carolina,35.31,-82.42,"East Campus Drive, Flat Rock, Hendersonville, Henderson County, North Carolina, United States, 28731"
460320,27910,Hertford County Schools,Hertford County High,State Of North Carolina,36.3,-77,"1500, 1st Street West, Ahoskie, Ahoskie, Hertford County, North Carolina, United States, 27910"
460322,27910,Hertford County Schools,Hertford Co Early College,State Of North Carolina,36.33,-77.02,"109, Community College Road, Ahoskie, Ahoskie, Hertford County, North Carolina, United States, 27910, 8048"
460340,27986,Hertford County Schools,CS Brown High,State Of North Carolina,36.39,-76.94,"102 C, S. Brown Dr, Winton, Winton, Hertford County, North Carolina, United States, 27986"
470312,28376,Hoke County Schools,Hoke County High,State Of North Carolina,34.97,-79.23,"505, South Bethel Road, Raeford, Raeford, Hoke County, North Carolina, United States, 28376"
470443,28376,Hoke County Schools,SandHoke Early College High,State Of North Carolina,34.98,-79.21,"1110, East Central Avenue, Raeford, Raeford, Hoke County, North Carolina, United States, 28376, 3000"
490320,28677,Iredell-Statesville Schools,Collaborative College for Technology,State Of North Carolina,35.78,-80.89,"500, West Broad Street, Statesville, Statesville, Iredell County, North Carolina, United States, 28677, 5264"
490335,28117,Iredell-Statesville Schools,Lake Norman High,State Of North Carolina,35.6,-80.9,"186, Doolie Road, Mooresville, Davidson, Iredell County, North Carolina, United States, 28117"
490346,28660,Iredell-Statesville Schools,North Iredell High,State Of North Carolina,35.93,-80.87,"156, Raider Road, Olin, Olin, Iredell County, North Carolina, United States, 28660"
490354,28677,Iredell-Statesville Schools,Statesville High,State Of North Carolina,35.79,-80.89,"474, North Center Street, Statesville, Statesville, Iredell County, North Carolina, United States, 28677"
490355,28677,Iredell-Statesville Schools,Crossroads Arts Sciences Early College,State Of North Carolina,35.79,-80.89,"476, North Center Street, Statesville, Statesville, Iredell County, North Carolina, United States, 28677, 4022"
490362,28677,Iredell-Statesville Schools,South Iredell High,State Of North Carolina,35.72,-80.91,"299, Old Mountain Road, Statesville, Fallstown, Iredell County, North Carolina, United States, 28677, 2065"
490380,28677,Iredell-Statesville Schools,West Iredell High,State Of North Carolina,35.79,-80.99,"213, Warrior Drive, Statesville, Shiloh, Iredell County, North Carolina, United States, 28625"
491305,28115,Mooresville City Schools,NF Woods Adv Tech and Arts Center,State Of North Carolina,35.59,-80.82,"574, West McLelland Avenue, Mooresville, Coddle Creek, Iredell County, North Carolina, United States, 28115, 3139"
491312,28115,Mooresville City Schools,Mooresville High School,State Of North Carolina,35.58,-80.8,"659, East Center Avenue, Mooresville, Coddle Creek, Iredell County, North Carolina, United States, 28115"
500323,28779,Jackson County Schools,Jackson Co Early College,State Of North Carolina,35.35,-83.21,"404, College Drive, Sylva, Webster, Jackson County, North Carolina, United States, 28779, 8581"
500340,28779,Jackson County Schools,Smoky Mountain High,State Of North Carolina,35.39,-83.2,"100, Great Smoky Mountains Expressway, Sylva, Sylva, Jackson County, North Carolina, United States, 28779"
510324,27520,Johnston County Schools,Clayton High,State Of North Carolina,35.65,-78.47,"600, South Fayetteville Street, Clayton, Clayton, Johnston County, North Carolina, United States, 27520, 2716"
510325,27577,Johnston County Schools,Johnston County Schools Career Technical,State Of North Carolina,35.5,-78.33,"Wilson Building, 245, College Road, Smithfield, Smithfield, Johnston County, North Carolina, United States, 27577"
510327,27520,Johnston County Schools,Cleveland High,State Of North Carolina,35.55,-78.5,"1892, Polenta Road, Clayton, Cleveland, Johnston County, North Carolina, United States, 27520, 7045"
510333,27591,Johnston County Schools,Corinth Holders High,State Of North Carolina,35.72,-78.34,"6875, Applewhite Road, Wendell, Wilders, Johnston County, North Carolina, United States, 27591, 7119"
510357,27577,Johnston County Schools,Johnston Co Middle College,State Of North Carolina,35.5,-78.33,"Wilson Building, 245, College Road, Smithfield, Smithfield, Johnston County, North Carolina, United States, 27577"
510367,27577,Johnston County Schools,Johnston Co Early College Academy,State Of North Carolina,35.5,-78.33,"235, College Road, Smithfield, Smithfield, Johnston County, North Carolina, United States, 27577"
510368,27542,Johnston County Schools,North Johnston High,State Of North Carolina,35.57,-78.18,"5915, U.S. 301, Selma, Micro, Johnston County, North Carolina, United States, 27576"
510380,27577,Johnston County Schools,South Campus Community High,State Of North Carolina,35.5,-78.34,"521, Martin Luther King Junior Drive, Smithfield, Smithfield, Johnston County, North Carolina, United States, 27577, 5379"
510399,27577,Johnston County Schools,Smithfield-Selma High,State Of North Carolina,35.53,-78.32,"700, East Booker Dairy Road, Smithfield, Selma, Johnston County, North Carolina, United States, 27577, 4852"
510402,27524,Johnston County Schools,South Johnston High,State Of North Carolina,35.41,-78.5,"10381, US Highway 301 South, Four Oaks, Banner, Johnston County, North Carolina, United States, 27524"
510406,27504,Johnston County Schools,West Johnston High,State Of North Carolina,35.52,-78.54,"5935, Raleigh Road, Benson, Elevation, Johnston County, North Carolina, United States, 27504, 7140"
520320,28585,Jones County Schools,Jones Senior High,State Of North Carolina,35.03,-77.33,"1490, North Carolina Highway 58, Trenton, 3, Trenton, Jones County, North Carolina, United States, 28585"
530335,27330,Lee County Schools,Lee Early College,State Of North Carolina,35.47,-79.15,"1105, Kelly Drive, Sanford, 5, East Sanford, Lee County, North Carolina, United States, 27330, 9059"
530336,27330,Lee County Schools,Lee County High,State Of North Carolina,35.47,-79.15,"1708, Nash Street, Sanford, 2, Jonesboro, Lee County, North Carolina, United States, 27330, 5843"
530343,27332,Lee County Schools,Southern Lee High School,State Of North Carolina,35.44,-79.19,"2301, Tramway Road, Sanford, 2, Jonesboro, Lee County, North Carolina, United States, 27332, 9173"
540315,28501,Lenoir County Public Schools,Kinston High,State Of North Carolina,35.3,-77.58,"2601, North Queen Street, Kinston, Kinston, Lenoir County, North Carolina, United States, 28501, 1756"
540317,28502,Lenoir County Public Schools,Lenoir County Early College High,State Of North Carolina,35.23,-77.57,"231, North Carolina Highway 58, Kinston, Southwest, Lenoir County, North Carolina, United States, 28504, 6836"
540324,28551,Lenoir County Public Schools,North Lenoir High,State Of North Carolina,35.34,-77.68,"2400, Institute Road, La Grange, Institute, Lenoir County, North Carolina, United States, 28551"
540336,28525,Lenoir County Public Schools,South Lenoir High,State Of North Carolina,35.15,-77.7,"3355, Old Highway 11, Deep Run, Trent, Lenoir County, North Carolina, United States, 28525, 9305"
550320,28037,Lincoln County Schools,East Lincoln High,State Of North Carolina,35.46,-81.02,"6471, North Carolina 73, Denver, Catawba Springs, Lincoln County, North Carolina, United States, 28037, 9179"
550332,28092,Lincoln County Schools,Lincolnton High,State Of North Carolina,35.48,-81.26,"803, North Aspen Street, Lincolnton, Lincolnton, Lincoln County, North Carolina, United States, 28092, 2111"
550344,28092,Lincoln County Schools,North Lincoln High,State Of North Carolina,35.53,-81.12,"2737, Lee Lawing Road, Lincolnton, Ironton, Lincoln County, North Carolina, United States, 28092, 7520"
550368,28092,Lincoln County Schools,West Lincoln High,State Of North Carolina,35.49,-81.39,"172, Shoal Road, Lincolnton, Howards Creek, Lincoln County, North Carolina, United States, 28092, 0772"
560320,28734,Macon County Schools,Franklin High,State Of North Carolina,35.18,-83.38,"100, Panther Drive, Franklin, Franklin, Macon County, North Carolina, United States, 28734, 2785"
560329,28734,Macon County Schools,Macon Early College High School,State Of North Carolina,35.16,-83.38,"77, Siler Farm Road, Franklin, Franklin, Macon County, North Carolina, United States, 28734, 0060"
570317,28753,Madison County Schools,Madison Early College High,State Of North Carolina,35.8,-82.68,"25, U.S. 70 Business, Marshall, 1, North Marshall, Madison County, North Carolina, United States, 28753"
570318,28753,Madison County Schools,Madison High,State Of North Carolina,35.81,-82.67,"5740, U.S. 25, Marshall, 1, North Marshall, Madison County, North Carolina, United States, 28753"
580344,27871,Martin County Schools,South Creek High,State Of North Carolina,35.86,-77.24,"21077, North Carolina 903, Robersonville, Robersonville, Martin County, North Carolina, United States, 27871, 9212"
580368,27892,Martin County Schools,Riverside High, Williamston,35.84,-77.07,"1260, Godwin Avenue, Williamston, Williamston, Martin County, North Carolina, United States, 27892"
590328,28752,McDowell County Schools,McDowell Early College,State Of North Carolina,35.66,-81.96,"54, College Drive, Marion, Higgins, McDowell County, North Carolina, United States, 28752"
590330,28752,McDowell County Schools,McDowell High,State Of North Carolina,35.7,-82.03,"600, McDowell High School Road, Marion, Marion, McDowell County, North Carolina, United States, 28752"
600302,28277,Charlotte-Mecklenburg Schools,Ardrey Kell High,State Of North Carolina,35.03,-80.83,"10220, Ardrey Kell Road, Provincetowne, Charlotte, 1, Charlotte, Mecklenburg County, North Carolina, United States, 28277, 4328"
600312,28031,Charlotte-Mecklenburg Schools,William Amos Hough High,State Of North Carolina,35.47,-80.83,"12420, Bailey Road, Cornelius, 9, Deweese, Mecklenburg County, North Carolina, United States, 28031, 9134"
600334,28215,Charlotte-Mecklenburg Schools,Cato Middle College High,State Of North Carolina,35.27,-80.73,"171, 8120, Grier Road, Charlotte, 1, Charlotte, Mecklenburg County, North Carolina, United States, 28215"
600361,28105,Charlotte-Mecklenburg Schools,Butler High,State Of North Carolina,35.12,-80.69,"1810, Matthews-Mint Hill Road, Matthews, 13, Morning Star, Mecklenburg County, North Carolina, United States, 28105, 4649"
600377,28212,Charlotte-Mecklenburg Schools,East Mecklenburg High,State Of North Carolina,35.18,-80.76,"6800, Monroe Road, East Forest, Charlotte, 1, Charlotte, Mecklenburg County, North Carolina, United States, 28212, 6821"
600386,28205,Charlotte-Mecklenburg Schools,Hawthorne High,State Of North Carolina,35.23,-80.81,"1411, Hawthorne Lane, Belmont, Charlotte, 1, Charlotte, Mecklenburg County, North Carolina, United States, 28205, 2923"
600397,28205,Charlotte-Mecklenburg Schools,Garinger High,State Of North Carolina,35.24,-80.78,"1100, Eastway Drive, Plaza-Shamrock, Charlotte, 1, Charlotte, Mecklenburg County, North Carolina, United States, 28205, 1433"
600404,28273,Charlotte-Mecklenburg Schools,Harper Middle College High,State Of North Carolina,35.13,-80.9,"315, West Hebron Street, Montclaire South, Charlotte, 1, Charlotte, Mecklenburg County, North Carolina, United States, 28273"
600405,28208,Charlotte-Mecklenburg Schools,Harding University High,State Of North Carolina,35.24,-80.9,"2001, Alleghany Street, Westerly Hills, Charlotte, 1, Charlotte, Mecklenburg County, North Carolina, United States, 28208, 3734"
600415,28078,Charlotte-Mecklenburg Schools,Hopewell High,State Of North Carolina,35.38,-80.91,"11530, Beatties Ford Road, Huntersville, 11, Long Creek, Mecklenburg County, North Carolina, United States, 28078, 8460"
600426,28227,Charlotte-Mecklenburg Schools,Independence High,State Of North Carolina,35.2,-80.69,"1967, Patriot Drive, Charlotte, 6, Clear Creek, Mecklenburg County, North Carolina, United States, 28227, 4123"
600443,28105,Charlotte-Mecklenburg Schools,Levine Middle College High,State Of North Carolina,35.11,-80.69,"2728, Campus Ridge Road, Matthews, 13, Morning Star, Mecklenburg County, North Carolina, United States, 28105, 4859"
600445,28269,Charlotte-Mecklenburg Schools,Mallard Creek High,State Of North Carolina,35.36,-80.77,"3825, Johnston Oehler Road, Prosperity Church Road, Charlotte, 1, Charlotte, Mecklenburg County, North Carolina, United States, 28269"
600457,28227,Charlotte-Mecklenburg Schools,Rocky River High,State Of North Carolina,35.21,-80.64,"10505, Clear Creek Commerce Drive, Charlotte, 6, Clear Creek, Mecklenburg County, North Carolina, United States, 28227, 7078"
600466,28209,Charlotte-Mecklenburg Schools,Myers Park High,State Of North Carolina,35.17,-80.83,"2400, Colony Road, Barclay Downs, Charlotte, 1, Charlotte, Mecklenburg County, North Carolina, United States, 28209"
600480,28078,Charlotte-Mecklenburg Schools,North Mecklenburg High,State Of North Carolina,35.37,-80.83,"11201, Old Statesville Road, Huntersville, 11, Long Creek, Mecklenburg County, North Carolina, United States, 28078, 7644"
600496,28208,Charlotte-Mecklenburg Schools,Phillip O Berry Academy of Technology,State Of North Carolina,35.24,-80.89,"1430, Alleghany Street, Ashley Park, Charlotte, 1, Charlotte, Mecklenburg County, North Carolina, United States, 28208, 0805"
600498,28262,Charlotte-Mecklenburg Schools,Performance Learning Center, Charlotte,35.3,-80.8,"2300, West Sugar Creek Road, Mineral Springs, Charlotte, 1, Charlotte, Mecklenburg County, North Carolina, United States, 28262, 3144"
600499,28205,Charlotte-Mecklenburg Schools,eLearning Academy,State Of North Carolina,35.24,-80.81,"Villa Heights Academic Center, 800, Everett Place, Villa Heights, Charlotte, 1, Charlotte, Mecklenburg County, North Carolina, United States, 28205, 1930"
600508,28270,Charlotte-Mecklenburg Schools,Providence High,State Of North Carolina,35.11,-80.76,"1800, Pineville-Matthews Road, Oxford Hunt, Charlotte, 1, Charlotte, Mecklenburg County, North Carolina, United States, 28270, 0330"
600535,28210,Charlotte-Mecklenburg Schools,South Mecklenburg High,State Of North Carolina,35.11,-80.86,"8900, Park Road, Park Crossing, Charlotte, 1, Charlotte, Mecklenburg County, North Carolina, United States, 28210, 7609"
600567,28262,Charlotte-Mecklenburg Schools,Charlotte Engineering Early College-UNCC,State Of North Carolina,35.31,-80.74,"9000, Robert D. Snyder Road, University City South, Charlotte, 1, Charlotte, Mecklenburg County, North Carolina, United States, 28262"
600576,28216,Charlotte-Mecklenburg Schools,West Charlotte High,State Of North Carolina,35.27,-80.86,"2219, Senior Drive, University Park, Charlotte, 1, Charlotte, Mecklenburg County, North Carolina, United States, 28216, 4303"
600579,28214,Charlotte-Mecklenburg Schools,West Mecklenburg High,State Of North Carolina,35.25,-80.95,"7400, Tuckaseegee Road, Pawtuckett, Charlotte, 1, Charlotte, Mecklenburg County, North Carolina, United States, 28214, 2621"
600592,28262,Charlotte-Mecklenburg Schools,Vance High,State Of North Carolina,35.3,-80.77,"7600, IBM Drive, Mineral Springs, Charlotte, 1, Charlotte, Mecklenburg County, North Carolina, United States, 28262, 4314"
600693,28273,Charlotte-Mecklenburg Schools,Olympic High - Renaissance School,State Of North Carolina,35.16,-80.95,"d, 4301, Sandy Porter Road, Olde Whitehall, Charlotte, 1, Charlotte, Mecklenburg County, North Carolina, United States, 28273, 3214"
600694,28273,Charlotte-Mecklenburg Schools,Olympic High-Math Eng Tech Science,State Of North Carolina,35.16,-80.95,"b, 4301, Sandy Porter Road, Olde Whitehall, Charlotte, 1, Charlotte, Mecklenburg County, North Carolina, United States, 28273, 3214"
600695,28273,Charlotte-Mecklenburg Schools,Olympic TEAM High School,State Of North Carolina,35.16,-80.95,"a, 4301, Sandy Porter Road, Olde Whitehall, Charlotte, 1, Charlotte, Mecklenburg County, North Carolina, United States, 28273, 3214"
600696,28273,Charlotte-Mecklenburg Schools,Olympic High-Leadership and Development,State Of North Carolina,35.16,-80.95,"c, 4301, Sandy Porter Road, Olde Whitehall, Charlotte, 1, Charlotte, Mecklenburg County, North Carolina, United States, 28273, 3214"
600697,28273,Charlotte-Mecklenburg Schools,Olympic High - Biotech Health Pub Admin,State Of North Carolina,35.16,-80.95,"e, 4301, Sandy Porter Road, Olde Whitehall, Charlotte, 1, Charlotte, Mecklenburg County, North Carolina, United States, 28273, 3214"
610332,28777,Mitchell County Schools,Mayland Early College,State Of North Carolina,35.93,-82.02,"200, Mayland Lane, Spruce Pine, Ingalls, Avery County, North Carolina, United States, 28777, 8434"
610334,28705,Mitchell County Schools,Mitchell High,State Of North Carolina,35.97,-82.12,"416, Ledger School Road, Bakersville, Snow Creek, Mitchell County, North Carolina, United States, 28705, 7264"
620316,27209,Montgomery County Schools,East Montgomery High,State Of North Carolina,35.34,-79.78,"157, Eagle Lane, Biscoe, Biscoe, Montgomery County, North Carolina, United States, 27209, 9668"
620340,27306,Montgomery County Schools,West Montgomery High,State Of North Carolina,35.3,-79.96,"147, Warrior Drive, Mount Gilead, Mount Gilead, Montgomery County, North Carolina, United States, 27306"
630332,27325,Moore County Schools,North Moore High,State Of North Carolina,35.47,-79.55,"1504, North Moore Road, Robbins, 4, Ritter, Moore County, North Carolina, United States, 27325, 8259"
630336,28387,Moore County Schools,Pinecrest High,State Of North Carolina,35.18,-79.43,"250, Voit Gilmore Lane, Southern Pines, 7, McNeill, Moore County, North Carolina, United States, 28387, 4332"
630360,28326,Moore County Schools,Union Pines High,State Of North Carolina,35.32,-79.35,"1981, Union Church Road, Cameron, 1, Carthage, Moore County, North Carolina, United States, 28326"
640346,27804,Nash-Rocky Mount Schools,Nash Central High,State Of North Carolina,35.96,-77.9,"4279, Nash Central High Road, Rocky Mount, Oak Level, Nash County, North Carolina, United States, 27804, 8327"
640347,27804,Nash-Rocky Mount Schools,NRM Early College High School,State Of North Carolina,35.99,-77.9,"530, North Old Carriage Road, Rocky Mount, Oak Level, Nash County, North Carolina, United States, 27804, 9720"
640350,27804,Nash-Rocky Mount Schools,Northern Nash High,State Of North Carolina,36,-77.89,"4230, Green Hills Road, Rocky Mount, Stony Creek, Nash County, North Carolina, United States, 27804, 7922"
640361,27803,Nash-Rocky Mount Schools,Rocky Mount High,State Of North Carolina,35.94,-77.84,"1400, Bethlehem Road, Rocky Mount, Stony Creek, Nash County, North Carolina, United States, 27803, 2203"
640364,27807,Nash-Rocky Mount Schools,Southern Nash High,State Of North Carolina,35.85,-78.09,"6446, Southern Nash High Road, Bailey, Jackson, Nash County, North Carolina, United States, 27807"
650326,28405,New Hanover County Schools,Emsley A Laney High,State Of North Carolina,34.3,-77.87,"2700, North College Road, Wilmington, Cape Fear, New Hanover County, North Carolina, United States, 28405, 8816"
650327,28412,New Hanover County Schools,Eugene Ashley High,State Of North Carolina,34.1,-77.91,"555, Halyburton Memorial Parkway, Wilmington, Federal Point, New Hanover County, North Carolina, United States, 28412, 3094"
650340,28403,New Hanover County Schools,Isaac M Bear Early College High School,State Of North Carolina,34.22,-77.88,"630, MacMillan Avenue, Wilmington, Wilmington, New Hanover County, North Carolina, United States, 28403"
650342,28403,New Hanover County Schools,John T Hoggard High,State Of North Carolina,34.2,-77.89,"4305, Shipyard Boulevard, Wilmington, Wilmington, New Hanover County, North Carolina, United States, 28403, 6160"
650352,28401,New Hanover County Schools,New Hanover High,State Of North Carolina,34.24,-77.93,"1307, Market Street, Wilmington, Wilmington, New Hanover County, North Carolina, United States, 28401, 4331"
650355,28405,New Hanover County Schools,Career Readiness Academy at Mosley PLC,State Of North Carolina,34.24,-77.9,"3702, Princess Place Drive, Wilmington, Wilmington, New Hanover County, North Carolina, United States, 28405, 3250"
650394,NC,New Hanover County Schools,Wilmington Early College High,State Of North Carolina,34.32,-77.88,"234, 4500, Blue Clay Road, Castle Hayne, Cape Fear, New Hanover County, North Carolina, United States, 28429"
660336,27832,Northampton County Schools,Northampton County High School,State Of North Carolina,36.51,-77.65,"152, Hurricane Drive, Gaston, Gaston, Northampton County, North Carolina, United States, 27832, 9684"
660400,27832,Northampton County Schools,Northampton Early College,State Of North Carolina,36.5,-77.67,"4671, North Carolina 46, Gaston, Gaston, Northampton County, North Carolina, United States, 27832, 9108"
670320,28445,Onslow County Schools,Dixon High,State Of North Carolina,34.58,-77.48,"160, Dixon School Road, Holly Ridge, Stump Sound, Onslow County, North Carolina, United States, 28445, 7759"
670324,28540,Onslow County Schools,Jacksonville High,State Of North Carolina,34.78,-77.43,"1021, Henderson Drive, Jacksonville, Jacksonville, Onslow County, North Carolina, United States, 28540"
670333,28546,Onslow County Schools,Northside High, Jacksonville,34.79,-77.39,"365, Commons Drive South, Jacksonville, Jacksonville, Onslow County, North Carolina, United States, 28546, 6107"
670340,28574,Onslow County Schools,Richlands High,State Of North Carolina,34.89,-77.54,"8100, Richlands Highway, Richlands, Richlands, Onslow County, North Carolina, United States, 28574"
670344,28540,Onslow County Schools,Southwest High,State Of North Carolina,34.75,-77.48,"1420, Burgaw Highway, Jacksonville, Jacksonville, Onslow County, North Carolina, United States, 28540, 7930"
670352,28584,Onslow County Schools,Swansboro High,State Of North Carolina,34.7,-77.15,"161, Queens Creek Road, Swansboro, Swansboro, Onslow County, North Carolina, United States, 28584, 8496"
670364,28546,Onslow County Schools,White Oak High,State Of North Carolina,34.77,-77.35,"1001, Piney Green Road, Jacksonville, White Oak, Onslow County, North Carolina, United States, 28546, 8522"
680310,27278,Orange County Schools,Cedar Ridge High,State Of North Carolina,36.05,-79.13,"1125, New Grady Brown School Road, Hillsborough, Hillsborough, Orange County, North Carolina, United States, 27278, 9688"
680332,27278,Orange County Schools,Orange High,State Of North Carolina,36.09,-79.09,"500, Orange High School Road, Hillsborough, Hillsborough, Orange County, North Carolina, United States, 27278, 8415"
680335,27278,Orange County Schools,Partnership Academy,State Of North Carolina,36.03,-79.08,"Storey Lane, Chapel Hill, Chapel Hill, Orange County, North Carolina, United States, 27514"
681305,27510,Chapel Hill-Carrboro Schools,Carrboro High,State Of North Carolina,35.89,-79.09,"201, Rock Haven Road, Carrboro, Chapel Hill, Orange County, North Carolina, United States, 27510"
681308,27516,Chapel Hill-Carrboro Schools,Chapel Hill High,State Of North Carolina,35.94,-79.08,"1709, High School Road, Chapel Hill, Chapel Hill, Orange County, North Carolina, United States, 27516"
681314,27514,Chapel Hill-Carrboro Schools,East Chapel Hill High,State Of North Carolina,35.96,-79.03,"500, Weaver Dairy Road, Chapel Hill, Chapel Hill, Orange County, North Carolina, United States, 27514, 1721"
681338,27516,Chapel Hill-Carrboro Schools,Phoenix Academy High,State Of North Carolina,35.9,-79.07,"750, South Merritt Mill Road, Chapel Hill, Chapel Hill, Orange County, North Carolina, United States, 27516"
690320,28515,Pamlico County Schools,Pamlico County High,State Of North Carolina,35.14,-76.78,"601, Main Street, Bayboro, 3, Pamlico County, North Carolina, United States, 28515, 9633"
700317,27909,Pasquotank County Schools,Northeastern High,State Of North Carolina,36.29,-76.26,"963, Oak Stump Road, Elizabeth City, Mount Hermon, Pasquotank County, North Carolina, United States, 27909, 7611"
700319,27909,Pasquotank County Schools,Pasquotank County High,State Of North Carolina,36.37,-76.27,"1064, Northside Road, Elizabeth City, Providence, Pasquotank County, North Carolina, United States, 27909"
710321,28457,Pender County Schools,Heide Trask High,State Of North Carolina,34.43,-77.89,"14328, North Carolina 210, Rocky Point, Rocky Point, Pender County, North Carolina, United States, 28457, 7319"
710327,28425,Pender County Schools,Pender Early College High,State Of North Carolina,34.54,-77.92,"100, Industrial Drive, Burgaw, Burgaw, Pender County, North Carolina, United States, 28425, 5081"
710342,28443,Pender County Schools,Topsail High,State Of North Carolina,34.4,-77.68,"245, North Saint Johns Church Road, Hampstead, Topsail, Pender County, North Carolina, United States, 28443"
720316,27944,Perquimans County Schools,Perquimans County High,State Of North Carolina,36.18,-76.47,"305, South Edenton Road Street, Hertford, Hertford, Perquimans County, North Carolina, United States, 27944"
730350,27573,Person County Schools,Person Early College Innovation & Ldrshp,State Of North Carolina,36.43,-78.98,"1715, College Drive, Roxboro, Roxboro, Person County, North Carolina, United States, 27573"
730352,27573,Person County Schools,Person High,State Of North Carolina,36.41,-78.98,"1010, Ridge Road, Roxboro, Roxboro, Person County, North Carolina, United States, 27573"
740309,28513,Pitt County Schools,Ayden-Grifton High,State Of North Carolina,35.43,-77.43,"7653, North Carolina 11 South, Ayden, Grifton, Pitt County, North Carolina, United States, 28513, 8416"
740333,27858,Pitt County Schools,D H Conley High,State Of North Carolina,35.53,-77.32,"2006, Worthington Road, Greenville, Chicod, Pitt County, North Carolina, United States, 27858, 8377"
740344,27828,Pitt County Schools,Farmville Central High,State Of North Carolina,35.59,-77.57,"3308, East Wilson Street, Farmville, Farmville, Pitt County, North Carolina, United States, 27828, 1674"
740366,27834,Pitt County Schools,Junius H Rose High,State Of North Carolina,35.59,-77.38,"600, West Arlington Boulevard, Greenville, Greenville, Pitt County, North Carolina, United States, 27834"
740374,27812,Pitt County Schools,North Pitt High,State Of North Carolina,35.75,-77.36,"5659, North Carolina 11 South, Bethel, Bethel, Pitt County, North Carolina, United States, 27812"
740388,28590,Pitt County Schools,South Central High,State Of North Carolina,35.54,-77.43,"570, Forlines Road, Winterville, Winterville, Pitt County, North Carolina, United States, 28590, 8512"
740500,NC,Pitt County Schools,Early College High School,State Of North Carolina,35.55,-77.41,"1986, Pitt Tech Road, Winterville, Winterville, Pitt County, North Carolina, United States, 28590"
750317,28722,Polk County Schools,Polk County Early College,State Of North Carolina,35.26,-82.18,"1545, North Carolina 108, Columbus, Columbus, Polk County, North Carolina, United States, 28722"
750318,28722,Polk County Schools,Polk County High School,State Of North Carolina,35.27,-82.18,"1681, North Carolina 108, Columbus, Columbus, Polk County, North Carolina, United States, 28722"
760318,27316,Randolph County Schools,Eastern Randolph High,State Of North Carolina,35.76,-79.62,"390, Eastern Randolph Road, Ramseur, Columbia, Randolph County, North Carolina, United States, 27316"
760339,27233,Randolph County Schools,Providence Grove High,State Of North Carolina,35.85,-79.71,"5555, Mack Lineberry Road, Climax, Providence, Randolph County, North Carolina, United States, 27233, 8052"
760348,27317,Randolph County Schools,Randleman High,State Of North Carolina,35.83,-79.82,"4396, Tigers Den Road, Randleman, Randleman, Randolph County, North Carolina, United States, 27317"
760354,27205,Randolph County Schools,Randolph Early College High,State Of North Carolina,35.67,-79.83,"Health Sciences Center, 629, Industrial Park Avenue, Asheboro, Asheboro, Randolph County, North Carolina, United States, 27205"
760358,27205,Randolph County Schools,Southwestern Randolph High,State Of North Carolina,35.62,-79.87,"1641, Hopewell Friends Road, Asheboro, Cedar Grove, Randolph County, North Carolina, United States, 27205, 1791"
760380,27370,Randolph County Schools,Trinity High,State Of North Carolina,35.89,-80,"5746, Trinity High School Drive, Trinity, Trinity, Randolph County, North Carolina, United States, 27370"
760388,27370,Randolph County Schools,Wheatmore High,State Of North Carolina,35.83,-80.01,"3678, Finch Farm Road, Trinity, Trinity, Randolph County, North Carolina, United States, 27370, 8979"
761304,27203,Asheboro City Schools,Asheboro High,State Of North Carolina,35.69,-79.82,"1221, South Park Street, Asheboro, Asheboro, Randolph County, North Carolina, United States, 27203, 6711"
770348,28379,Richmond County Schools,Richmond Senior High,State Of North Carolina,34.95,-79.72,"838, U.S. Highway 1, Rockingham, Rockingham, Richmond County, North Carolina, United States, 28379, 8588"
770349,28345,Richmond County Schools,Richmond Early College High,State Of North Carolina,34.9,-79.71,"1042, West Hamlet Avenue, Hamlet, Marks Creek, Richmond County, North Carolina, United States, 28345"
770351,28345,Richmond County Schools,Richmond 9th Grade Academy,State Of North Carolina,34.92,-79.7,"804, County Home Road, Hamlet, Marks Creek, Richmond County, North Carolina, United States, 28345, 4393"
780325,28340,Robeson County Schools,Fairmont High,State Of North Carolina,34.48,-79.09,"5419, Old Stage Road, Fairmont, Fairmont, Robeson County, North Carolina, United States, 28340, 7737"
780342,28358,Robeson County Schools,Lumberton Senior High,State Of North Carolina,34.65,-79,"3901, Fayetteville Road, Lumberton, Lumberton, Robeson County, North Carolina, United States, 28358"
780385,28360,Robeson County Schools,PSRC Early College at RCC,State Of North Carolina,34.68,-79.01,"5160, Fayetteville Road, Lumberton, Lumberton, Robeson County, North Carolina, United States, 28360, 2158"
780391,28377,Robeson County Schools,Red Springs High,State Of North Carolina,34.82,-79.19,"509, North Vance Street, Red Springs, Red Springs, Robeson County, North Carolina, United States, 28377"
780401,28384,Robeson County Schools,Saint Pauls High,State Of North Carolina,34.81,-78.98,"648, North Old Stage Road, Saint Pauls, St. Pauls, Robeson County, North Carolina, United States, 28384, 1474"
780402,28383,Robeson County Schools,South Robeson High,State Of North Carolina,34.55,-79.25,"3268, South Robeson Road, Rowland, Rowland, Robeson County, North Carolina, United States, 28383"
780420,28372,Robeson County Schools,Purnell Swett High,State Of North Carolina,34.7,-79.25,"11344, Deep Branch Road, Maxton, Pembroke, Robeson County, North Carolina, United States, 28364"
790314,27027,Rockingham County Schools,Dalton McMichael High,State Of North Carolina,36.42,-79.94,"6845, North Carolina 135, Mayodan, Mayo, Rockingham County, North Carolina, United States, 27027, 8126"
790354,27288,Rockingham County Schools,John M Morehead High,State Of North Carolina,36.51,-79.74,"134, North Pierce Street, Eden, Leaksville, Rockingham County, North Carolina, United States, 27288, 3531"
790366,27320,Rockingham County Schools,Reidsville High,State Of North Carolina,36.33,-79.68,"1901, South Park Drive, Reidsville, Reidsville, Rockingham County, North Carolina, United States, 27320, 6809"
790378,27320,Rockingham County Schools,Rockingham County High,State Of North Carolina,36.39,-79.74,"180, High School Road, Reidsville, Wentworth, Rockingham County, North Carolina, United States, 27320, 8889"
790379,27375,Rockingham County Schools,Rockingham Co Early College High,State Of North Carolina,36.26,-79.96,"North Carolina 65, North Carolina, United States"
800340,28146,Rowan-Salisbury Schools,East Rowan High,State Of North Carolina,35.59,-80.42,"175, Saint Lukes Church Road, Salisbury, Providence, Rowan County, North Carolina, United States, 28146"
800361,28023,Rowan-Salisbury Schools,Carson High,State Of North Carolina,35.57,-80.54,"290, Kress Venture Drive, China Grove, China Grove, Rowan County, North Carolina, United States, 28023"
800376,28159,Rowan-Salisbury Schools,North Rowan High,State Of North Carolina,35.7,-80.43,"300, North Whitehead Avenue, Spencer, Salisbury, Rowan County, North Carolina, United States, 28159, 2437"
800394,28146,Rowan-Salisbury Schools,Rowan Co Early College,State Of North Carolina,35.64,-80.48,"1333, Jake Alexander Boulevard South, Granite Quarry, Salisbury, Rowan County, North Carolina, United States, 28146, 8357"
800396,28144,Rowan-Salisbury Schools,Salisbury High,State Of North Carolina,35.66,-80.48,"500, Lincolnton Road, Salisbury, Salisbury, Rowan County, North Carolina, United States, 28144"
800400,28023,Rowan-Salisbury Schools,South Rowan High,State Of North Carolina,35.57,-80.61,"1655, Patterson Street, China Grove, China Grove, Rowan County, North Carolina, United States, 28023, 5705"
800408,28125,Rowan-Salisbury Schools,West Rowan High,State Of North Carolina,35.7,-80.64,"8050, North Carolina 801, Mount Ulla, Steele, Rowan County, North Carolina, United States, 28125, 8619"
810324,28043,Rutherford County Schools,Chase High School,State Of North Carolina,35.25,-81.84,"1603, Chase High Road, Forest City, High Shoals, Rutherford County, North Carolina, United States, 28043"
810340,28018,Rutherford County Schools,East Rutherford High School,State Of North Carolina,35.34,-81.82,"331, East High Road, Bostic, Colfax, Rutherford County, North Carolina, United States, 28018, 8737"
810384,28139,Rutherford County Schools,R-S Central High School,State Of North Carolina,35.4,-81.97,"641, U.S. 221, Rutherfordton, Rutherfordton, Rutherford County, North Carolina, United States, 28139"
810385,28160,Rutherford County Schools,Rutherford Early College High School,State Of North Carolina,35.34,-81.91,"286, I C C Loop Road, Rutherfordton, Cool Spring, Rutherford County, North Carolina, United States, 28139"
820324,28329,Sampson County Schools,Sampson Early College High,State Of North Carolina,34.99,-78.36,"1801, Sunset Avenue, Clinton, South Clinton, Sampson County, North Carolina, United States, 28328, 3139"
820348,28366,Sampson County Schools,Hobbton High,State Of North Carolina,35.18,-78.33,"12201, Hobbton Highway, Newton Grove, Halls, Sampson County, North Carolina, United States, 28366, 7246"
820349,28385,Sampson County Schools,Lakewood High,State Of North Carolina,34.99,-78.5,"245, Lakewood School Road, Salemburg, Honeycutt, Sampson County, North Carolina, United States, 28385, 9118"
820352,28366,Sampson County Schools,Midway High,State Of North Carolina,35.17,-78.48,"15274, Spiveys Corner Highway, Newton Grove, Plain View, Sampson County, North Carolina, United States, 28366, 6120"
820388,28458,Sampson County Schools,Union High,State Of North Carolina,34.81,-78.24,"1189, Kader Merritt Road, Rose Hill, Taylors Bridge, Sampson County, North Carolina, United States, 28458, 8842"
821308,28328,Clinton City Schools,Clinton High,State Of North Carolina,34.97,-78.33,"340, Indian Town Road, Clinton, South Clinton, Sampson County, North Carolina, United States, 28328, 1400"
830343,28352,Scotland County Schools,Scotland High School,State Of North Carolina,34.78,-79.48,"1000, West Church Street, Laurinburg, Stewartsville, Scotland County, North Carolina, United States, 28352"
830348,28352,Scotland County Schools,Scotland Early College High,State Of North Carolina,34.74,-79.48,"1700, Dogwood Mile Street, Laurinburg, Stewartsville, Scotland County, North Carolina, United States, 28352"
840302,28001,Stanly County Schools,Albemarle High,State Of North Carolina,35.37,-80.19,"311, Park Ridge Road, Albemarle, North Albemarle, Stanly County, North Carolina, United States, 28001, 2818"
840332,28127,Stanly County Schools,North Stanly High,State Of North Carolina,35.43,-80.21,"40206, U.S. 52, New London, Harris, Stanly County, North Carolina, United States, 28127, 8552"
840356,28128,Stanly County Schools,South Stanly High,State Of North Carolina,35.23,-80.16,"40488, South Stanly School Road, Norwood, Center, Stanly County, North Carolina, United States, 28128, 8757"
840361,28001,Stanly County Schools,Stanly Early College High,State Of North Carolina,35.34,-80.24,"141, College Drive, Albemarle, South Albemarle, Stanly County, North Carolina, United States, 28001, 7458"
840368,28129,Stanly County Schools,West Stanly High,State Of North Carolina,35.27,-80.35,"306, East Red Cross Road, Oakboro, Big Lick, Stanly County, North Carolina, United States, 28129, 7202"
840370,28001,Stanly County Schools,Stanly Academy Learning Center,State Of North Carolina,35.36,-80.21,"1121, Austin Street, Albemarle, North Albemarle, Stanly County, North Carolina, United States, 28001, 3206"
850332,27016,Stokes County Schools,North Stokes High,State Of North Carolina,36.46,-80.28,"1350, North Stokes School Road, Danbury, Peters Creek, Stokes County, North Carolina, United States, 27016, 7237"
850352,27052,Stokes County Schools,South Stokes High,State Of North Carolina,36.33,-80.24,"1100, South Stokes High Drive, Walnut Cove, Meadows, Stokes County, North Carolina, United States, 27052, 5842"
850358,27021,Stokes County Schools,West Stokes High,State Of North Carolina,36.31,-80.38,"1400, Priddy Road, King, Yadkin, Stokes County, North Carolina, United States, 27021"
850360,27052,Stokes County Schools,Stokes Early College,State Of North Carolina,36.38,-80.18,"1165, Dodgetown Road, Meadows, Walnut Cove, Meadows, Stokes County, North Carolina, United States, 27052"
860316,27041,Surry County Schools,East Surry High,State Of North Carolina,36.39,-80.48,"801, West Main Street, Pilot Mountain, Pilot, Surry County, North Carolina, United States, 27041, 9318"
860336,27030,Surry County Schools,North Surry High,State Of North Carolina,36.5,-80.67,"2440, West Pine Street, Mount Airy, Stewarts Creek, Surry County, North Carolina, United States, 27030, 8510"
860352,27017,Surry County Schools,Surry Central High,State Of North Carolina,36.38,-80.71,"716, South Main Street, Dobson, Dobson, Surry County, North Carolina, United States, 27017, 8593"
860354,27017,Surry County Schools,Surry Early College,State Of North Carolina,36.39,-80.72,"630, South Main Street, Dobson, Dobson, Surry County, North Carolina, United States, 27017, 8432"
861308,28621,Elkin City Schools,Elkin High,State Of North Carolina,36.25,-80.86,"334, Elk Spur Street, Elkin, Elkin, Surry County, North Carolina, United States, 28621, 3308"
862312,27030,Mount Airy City Schools,Mount Airy High,State Of North Carolina,36.51,-80.62,"1011, North South Street, Mount Airy, Mount Airy, Surry County, North Carolina, United States, 27030, 2851"
870314,28713,Swain County Schools,Swain County High School,State Of North Carolina,35.45,-83.46,"1415, Fontana Road, Bryson City, Charleston, Swain County, North Carolina, United States, 28713, 6951"
880308,28712,Transylvania County Schools,Brevard High,State Of North Carolina,35.22,-82.73,"609, North Country Club Road, Brevard, Brevard, Transylvania County, North Carolina, United States, 28712, 8992"
880320,28712,Transylvania County Schools,Davidson River School,State Of North Carolina,35.26,-82.7,"970, Ecusta Road, Brevard, Brevard, Transylvania County, North Carolina, United States, 28712"
880328,28772,Transylvania County Schools,Rosman High,State Of North Carolina,35.14,-82.82,"749, Pickens Highway, Rosman, Catheys Creek, Transylvania County, North Carolina, United States, 28772, 9638"
890304,27925,Tyrrell County Schools,Columbia High,State Of North Carolina,35.92,-76.25,"902, Main Street, Columbia, Columbia, Tyrrell County, North Carolina, United States, 27925"
900311,28173,Union County Public Schools,Cuthbertson High,State Of North Carolina,34.98,-80.74,"1400, Cuthbertson Road, Waxhaw, Sandy Ridge, Union County, North Carolina, United States, 28173, 8101"
900316,28103,Union County Public Schools,Forest Hills High,State Of North Carolina,34.98,-80.41,"100, Forest Hills School Road South, Marshville, Marshville, Union County, North Carolina, United States, 28103"
900336,28112,Union County Public Schools,Monroe High,State Of North Carolina,34.97,-80.53,"1, High School Drive, Monroe, Monroe, Union County, North Carolina, United States, 28112, 5158"
900342,28079,Union County Public Schools,Porter Ridge High School,State Of North Carolina,35.09,-80.57,"2839, Ridge Road, Indian Trail, Goose Creek, Union County, North Carolina, United States, 28079, 6703"
900344,28112,Union County Public Schools,Parkwood High,State Of North Carolina,34.9,-80.63,"3220, Parkwood School Road, Monroe, Buford, Union County, North Carolina, United States, 28112, 0001"
900348,28110,Union County Public Schools,Piedmont High,State Of North Carolina,35.1,-80.49,"3006, Sikes Mill Road, Monroe, Goose Creek, Union County, North Carolina, United States, 28110, 9782"
900360,28110,Union County Public Schools,Sun Valley High,State Of North Carolina,35.04,-80.65,"5211, Old Charlotte Highway, Monroe, Vance, Union County, North Carolina, United States, 28110, 7343"
900366,28112,Union County Public Schools,Central Academy of Technology and Arts,State Of North Carolina,34.97,-80.57,"600, Brewer Drive, Monroe, Monroe, Union County, North Carolina, United States, 28112"
900367,28110,Union County Public Schools,Union County Early College,State Of North Carolina,35.03,-80.62,"4209a, Old Charlotte Highway, Monroe, Monroe, Union County, North Carolina, United States, 28110, 7333"
900377,28104,Union County Public Schools,Weddington High,State Of North Carolina,35,-80.73,"4901, Weddington Road, Matthews, Sandy Ridge, Union County, North Carolina, United States, 28104, 6267"
900393,28173,Union County Public Schools,Marvin Ridge High,State Of North Carolina,34.97,-80.8,"2825, Crane Road, Waxhaw, Sandy Ridge, Union County, North Carolina, United States, 28173, 2500"
910364,27537,Vance County Schools,Southern Vance High,State Of North Carolina,36.3,-78.38,"925, Garrett Road, Henderson, Sandy Creek, Vance County, North Carolina, United States, 27537, 7800"
910368,27536,Vance County Schools,Western Vance High,State Of North Carolina,36.33,-78.4,"219, Charles Street, Henderson, Henderson, Vance County, North Carolina, United States, 27536"
910370,27537,Vance County Schools,Northern Vance High,State Of North Carolina,36.35,-78.37,"293, Warrenton Road, Henderson, Henderson, Vance County, North Carolina, United States, 27536"
910382,27537,Vance County Schools,Vance Co Early College,State Of North Carolina,36.32,-78.49,"200, Community College Road, Henderson, Dabney, Vance County, North Carolina, United States, 27537"
920316,27519,Wake County Schools,Apex High,State Of North Carolina,35.77,-78.9,"7600, Roberts Road, Cary, White Oak, Wake County, North Carolina, United States, 27519"
920317,27502,Wake County Schools,Apex Friendship High,State Of North Carolina,35.7,-78.91,"7801, Humie Olive Road, Apex, Buckhorn, Wake County, North Carolina, United States, 27502"
920318,27606,Wake County Schools,Athens Drive High,State Of North Carolina,35.77,-78.71,"1420, Athens Drive, Southwest Raleigh, Raleigh, Raleigh, Wake County, North Carolina, United States, 27606"
920348,27605,Wake County Schools,Needham Broughton High,State Of North Carolina,35.79,-78.65,"723, Saint Marys Street, Raleigh, Raleigh, Wake County, North Carolina, United States, 27605"
920368,27511,Wake County Schools,Cary High,State Of North Carolina,35.77,-78.77,"638, Walnut Street, Cary, Cary, Wake County, North Carolina, United States, 27511"
920386,27518,Wake County Schools,Crossroads FLEX,State Of North Carolina,35.75,-78.74,"5651, Dillard Drive, Cary, Swift Creek, Wake County, North Carolina, United States, 27518, 9226"
920411,27591,Wake County Schools,East Wake High,State Of North Carolina,35.81,-78.42,"5101, Rolesville Road, Wendell, Marks Creek, Wake County, North Carolina, United States, 27591, 7964"
920412,27610,Wake County Schools,Enloe High,State Of North Carolina,35.78,-78.6,"128, Clarendon Crescent, East Raleigh, Raleigh, Raleigh, Wake County, North Carolina, United States, 27610, 2408"
920428,27526,Wake County Schools,Fuquay-Varina High,State Of North Carolina,35.6,-78.8,"201, Bengal Boulevard, Fuquay Varina, Middle Creek, Wake County, North Carolina, United States, 27526, 1603"
920436,27529,Wake County Schools,Garner High,State Of North Carolina,35.66,-78.58,"8228, Hebron Church Road, Garner, St. Marys, Wake County, North Carolina, United States, 27529"
920441,27519,Wake County Schools,Green Hope High,State Of North Carolina,35.8,-78.87,"2500, Carpenter Upchurch Road, Cary, Cedar Fork, Wake County, North Carolina, United States, 27519, 7007"
920445,27587,Wake County Schools,Heritage High,State Of North Carolina,35.94,-78.51,"1150, Forestville Road, Wake Forest, Wake Forest, Wake County, North Carolina, United States, 27587, 7600"
920455,27540,Wake County Schools,Holly Springs High,State Of North Carolina,35.63,-78.85,"5329, Cass Holt Road, Holly Springs, Holly Springs, Wake County, North Carolina, United States, 27540"
920466,27545,Wake County Schools,Knightdale High,State Of North Carolina,35.81,-78.48,"100, Bryan Chalk Lane, Knightdale, St. Matthews, Wake County, North Carolina, United States, 27545, 6712"
920473,27613,Wake County Schools,Leesville Road High,State Of North Carolina,35.89,-78.72,"8410, Pride Way, Northwest Raleigh, Raleigh, Leesville, Wake County, North Carolina, United States, 27613"
920495,27539,Wake County Schools,Middle Creek High,State Of North Carolina,35.67,-78.76,"123, Middle Creek Park Avenue, Apex, Swift Creek, Wake County, North Carolina, United States, 27539, 7983"
920500,27615,Wake County Schools,Millbrook High,State Of North Carolina,35.87,-78.6,"2201, Spring Forest Road, North Raleigh, Raleigh, Neuse, Wake County, North Carolina, United States, 27615, 7536"
920526,27519,Wake County Schools,Panther Creek High,State Of North Carolina,35.83,-78.89,"6770, McCrimmon Parkway, Panther Creek, Cary, White Oak, Wake County, North Carolina, United States, 27519"
920528,27610,Wake County Schools,Phillips High,State Of North Carolina,35.79,-78.62,"1923, Milburnie Road, Downtown, Raleigh, Raleigh, Wake County, North Carolina, United States, 27610, 2209"
920546,27571,Wake County Schools,Rolesville High,State Of North Carolina,35.91,-78.44,"1099, East Young Street, Bristol Park, Rolesville, Wake Forest, Wake County, North Carolina, United States, 27571, 9243"
920552,27609,Wake County Schools,Sanderson High,State Of North Carolina,35.86,-78.65,"5500, Dixon Drive, North Raleigh, Raleigh, House Creek, Wake County, North Carolina, United States, 27609, 4202"
920562,27610,Wake County Schools,Southeast Raleigh High,State Of North Carolina,35.75,-78.6,"2600, Rock Quarry Road, Southeast Raleigh, Raleigh, St. Marys, Wake County, North Carolina, United States, 27610, 5102"
920581,27603,Wake County Schools,Vernon Malone College and Career Academy,State Of North Carolina,35.75,-78.64,"2200, South Wilmington Street, Southwest Raleigh, Raleigh, Swift Creek, Wake County, North Carolina, United States, 27603, 2542"
920582,27603,Wake County Schools,Wake STEM Early College High School,State Of North Carolina,35.77,-78.67,"715, Barbour Drive, Southwest Raleigh, Raleigh, Raleigh, Wake County, North Carolina, United States, 27603"
920583,27610,Wake County Schools,Wake Early College of Health and Science,State Of North Carolina,35.78,-78.58,"2901, Holston Lane, East Raleigh, Raleigh, Raleigh, Wake County, North Carolina, United States, 27610"
920588,27587,Wake County Schools,Wake Forest High School,State Of North Carolina,35.98,-78.52,"420, Stadium Drive, Wake Forest, Wake Forest, Wake County, North Carolina, United States, 27587, 2520"
920595,27614,Wake County Schools,Wakefield High,State Of North Carolina,35.95,-78.57,"2200, Wakefield Pines Drive, North Raleigh, Raleigh, Wake Forest, Wake County, North Carolina, United States, 27614, 8809"
930352,27589,Warren County Schools,Warren County High,State Of North Carolina,36.43,-78.17,"149, Campus Drive, Warrenton, Warrenton, Warren County, North Carolina, United States, 27589"
930360,27589,Warren County Schools,Warren Early College High,State Of North Carolina,36.4,-78.16,"210, Ridgeway Street, Warrenton, Warrenton, Warren County, North Carolina, United States, 27589, 1838"
930700,27589,Warren County Schools,Warren New Tech High,State Of North Carolina,36.43,-78.17,"219, U.S. 158 Bypass, Warrenton, Warrenton, Warren County, North Carolina, United States, 27589"
940316,27962,Washington County Schools,Plymouth High,State Of North Carolina,35.87,-76.74,"800, East Main Street, Plymouth, Plymouth, Washington County, North Carolina, United States, 27962"
950336,28607,Watauga County Schools,Watauga High,State Of North Carolina,36.22,-81.65,"300, Go Pioneers Drive, Boone, New River, Watauga County, North Carolina, United States, 28607, 4054"
950338,28607,Watauga County Schools,Watauga Innovation Academy,State Of North Carolina,36.22,-81.65,"300, Go Pioneers Drive, Boone, New River, Watauga County, North Carolina, United States, 28607, 4054"
960324,27863,Wayne County Public Schools,Charles B Aycock High,State Of North Carolina,35.51,-77.98,"5460, U.S. 117, Pikeville, Pikeville, Wayne County, North Carolina, United States, 27863"
960330,27534,Wayne County Public Schools,Eastern Wayne High,State Of North Carolina,35.38,-77.88,"1135, East New Hope Road, Goldsboro, New Hope, Wayne County, North Carolina, United States, 27534"
960335,27530,Wayne County Public Schools,Goldsboro High,State Of North Carolina,35.39,-77.98,"901, Beech Street, Goldsboro, Goldsboro, Wayne County, North Carolina, United States, 27530"
960372,27530,Wayne County Public Schools,Rosewood High,State Of North Carolina,35.42,-78.08,"900, Rosewood Road, Goldsboro, Fork, Wayne County, North Carolina, United States, 27530, 7816"
960380,28333,Wayne County Public Schools,Southern Wayne High,State Of North Carolina,35.25,-78.05,"124, Walter Fulcher Rd, Dudley, Brogden, Wayne County, North Carolina, United States, 28333, 8154"
960386,28578,Wayne County Public Schools,Spring Creek High,State Of North Carolina,35.23,-77.9,"4340, Indian Springs Road, Seven Springs, Indian Springs, Wayne County, North Carolina, United States, 28578, 8750"
960490,27534,Wayne County Public Schools,Wayne Early / Middle College High,State Of North Carolina,35.4,-77.95,"3000, Wayne Memorial Drive, Goldsboro, Stoney Creek, Wayne County, North Carolina, United States, 27534, 8212"
970320,28670,Wilkes County Schools,East Wilkes High,State Of North Carolina,36.23,-80.93,"13315, Elkin Highway, Ronda, Edwards, Wilkes County, North Carolina, United States, 28670"
970356,28635,Wilkes County Schools,North Wilkes High,State Of North Carolina,36.28,-81.1,"2986, Traphill Road, Hays, Rock Creek, Wilkes County, North Carolina, United States, 28635, 9386"
970388,28651,Wilkes County Schools,West Wilkes High,State Of North Carolina,36.19,-81.26,"6598, Boone Trail, Millers Creek, Reddies River, Wilkes County, North Carolina, United States, 28651"
970390,28697,Wilkes County Schools,Wilkes Central High,State Of North Carolina,36.12,-81.18,"1179, Moravian Falls Road, Wilkesboro, Wilkesboro, Wilkes County, North Carolina, United States, 28697"
970393,28697,Wilkes County Schools,Wilkes Early College High,State Of North Carolina,36.14,-81.18,"1328, South Collegiate Drive, Wilkesboro, Wilkesboro, Wilkes County, North Carolina, United States, 28697"
980318,27893,Wilson County Schools,Beddingfield High,State Of North Carolina,35.66,-77.88,"4510, Old Stantonsburg Road, Wilson, Stantonsburg, Wilson County, North Carolina, United States, 27893, 7684"
980336,27893,Wilson County Schools,Fike High,State Of North Carolina,35.75,-77.92,"500, Harrison Drive North, Wilson, Wilson, Wilson County, North Carolina, United States, 27893, 1720"
980342,27893,Wilson County Schools,James Hunt High,State Of North Carolina,35.72,-78,"4559, Lamm Road, Wilson, Old Fields, Wilson County, North Carolina, United States, 27893, 9654"
980397,27893,Wilson County Schools,Wilson Academy of Applied Technology,State Of North Carolina,35.66,-77.88,"4510, Old Stantonsburg Road, Wilson, Stantonsburg, Wilson County, North Carolina, United States, 27893, 7684"
980398,27893,Wilson County Schools,Wilson Early College Academy,State Of North Carolina,35.73,-77.9,"902, Herring Avenue East, Wilson, Wilson, Wilson County, North Carolina, United States, 27893, 3310"
990322,27018,Yadkin County Schools,Forbush High,State Of North Carolina,36.14,-80.56,"1525, Falcon Road, East Bend, Forbush, Yadkin County, North Carolina, United States, 27018, 8439"
990326,27011,Yadkin County Schools,Starmount High,State Of North Carolina,36.18,-80.77,"2516, Longtown Road, Boonville, North Knobs, Yadkin County, North Carolina, United States, 27011, 8862"
990332,27055,Yadkin County Schools,Yadkin Early College,State Of North Carolina,36.15,-80.67,"1001, College Drive, Yadkinville, North Liberty, Yadkin County, North Carolina, United States, 27055, 5470"
